<?xml version='1.0' encoding='UTF-8'?>
<gpx version="1.1" creator="https://www.komoot.de" xmlns="http://www.topografix.com/GPX/1/1" xmlns:xsi="http://www.w3.org/2001/XMLSchema-instance" xsi:schemaLocation="http://www.topografix.com/GPX/1/1 http://www.topografix.com/GPX/1/1/gpx.xsd">
  <metadata>
    <name>Awirs Trail 21km</name>
    <author>
      <link href="https://www.komoot.de">
        <text>komoot</text>
        <type>text/html</type>
      </link>
    </author>
  </metadata>
  <trk>
    <name>Awirs Trail 21km</name>
    <trkseg>
      <trkpt lat="50.599530" lon="5.410757">
        <ele>86.987980</ele>
        <time>2026-03-17T19:15:50.758Z</time>
      </trkpt>
      <trkpt lat="50.599203" lon="5.411829">
        <ele>86.987980</ele>
        <time>2026-03-17T19:17:08.378Z</time>
      </trkpt>
      <trkpt lat="50.599092" lon="5.411897">
        <ele>86.987980</ele>
        <time>2026-03-17T19:17:20.902Z</time>
      </trkpt>
      <trkpt lat="50.598957" lon="5.411907">
        <ele>87.075634</ele>
        <time>2026-03-17T19:17:35.123Z</time>
      </trkpt>
      <trkpt lat="50.598921" lon="5.412025">
        <ele>87.141939</ele>
        <time>2026-03-17T19:17:43.793Z</time>
      </trkpt>
      <trkpt lat="50.598672" lon="5.412409">
        <ele>87.419950</ele>
        <time>2026-03-17T19:18:20.445Z</time>
      </trkpt>
      <trkpt lat="50.598522" lon="5.412560">
        <ele>87.561977</ele>
        <time>2026-03-17T19:18:39.076Z</time>
      </trkpt>
      <trkpt lat="50.598178" lon="5.412544">
        <ele>87.836563</ele>
        <time>2026-03-17T19:19:15.131Z</time>
      </trkpt>
      <trkpt lat="50.598106" lon="5.412509">
        <ele>87.896683</ele>
        <time>2026-03-17T19:19:22.938Z</time>
      </trkpt>
      <trkpt lat="50.596539" lon="5.412329">
        <ele>87.357876</ele>
        <time>2026-03-17T19:22:00.474Z</time>
      </trkpt>
      <trkpt lat="50.596307" lon="5.412197">
        <ele>87.069595</ele>
        <time>2026-03-17T19:22:26.620Z</time>
      </trkpt>
      <trkpt lat="50.596257" lon="5.412163">
        <ele>87.005948</ele>
        <time>2026-03-17T19:22:32.411Z</time>
      </trkpt>
      <trkpt lat="50.596091" lon="5.412001">
        <ele>86.777734</ele>
        <time>2026-03-17T19:22:53.264Z</time>
      </trkpt>
      <trkpt lat="50.595519" lon="5.411276">
        <ele>87.797490</ele>
        <time>2026-03-17T19:24:10.468Z</time>
      </trkpt>
      <trkpt lat="50.595250" lon="5.410989">
        <ele>89.194646</ele>
        <time>2026-03-17T19:24:43.084Z</time>
      </trkpt>
      <trkpt lat="50.595196" lon="5.410983">
        <ele>89.427446</ele>
        <time>2026-03-17T19:24:48.728Z</time>
      </trkpt>
      <trkpt lat="50.595105" lon="5.411072">
        <ele>89.888070</ele>
        <time>2026-03-17T19:24:59.904Z</time>
      </trkpt>
      <trkpt lat="50.595053" lon="5.411090">
        <ele>90.117027</ele>
        <time>2026-03-17T19:25:05.798Z</time>
      </trkpt>
      <trkpt lat="50.594959" lon="5.411104">
        <ele>90.523068</ele>
        <time>2026-03-17T19:25:16.080Z</time>
      </trkpt>
      <trkpt lat="50.595017" lon="5.411494">
        <ele>91.616555</ele>
        <time>2026-03-17T19:25:46.012Z</time>
      </trkpt>
      <trkpt lat="50.595200" lon="5.412352">
        <ele>94.161556</ele>
        <time>2026-03-17T19:27:03.084Z</time>
      </trkpt>
      <trkpt lat="50.595213" lon="5.412411">
        <ele>94.732053</ele>
        <time>2026-03-17T19:27:09.099Z</time>
      </trkpt>
      <trkpt lat="50.595239" lon="5.412500">
        <ele>95.627010</ele>
        <time>2026-03-17T19:27:18.920Z</time>
      </trkpt>
      <trkpt lat="50.595087" lon="5.412559">
        <ele>97.879737</ele>
        <time>2026-03-17T19:27:44.129Z</time>
      </trkpt>
      <trkpt lat="50.594801" lon="5.412813">
        <ele>102.604315</ele>
        <time>2026-03-17T19:28:39.381Z</time>
      </trkpt>
      <trkpt lat="50.594740" lon="5.412897">
        <ele>103.770218</ele>
        <time>2026-03-17T19:28:52.938Z</time>
      </trkpt>
      <trkpt lat="50.594755" lon="5.412985">
        <ele>104.602564</ele>
        <time>2026-03-17T19:29:02.779Z</time>
      </trkpt>
      <trkpt lat="50.594530" lon="5.413327">
        <ele>109.101845</ele>
        <time>2026-03-17T19:29:55.210Z</time>
      </trkpt>
      <trkpt lat="50.594380" lon="5.413463">
        <ele>111.592362</ele>
        <time>2026-03-17T19:30:23.998Z</time>
      </trkpt>
      <trkpt lat="50.594742" lon="5.413872">
        <ele>118.002922</ele>
        <time>2026-03-17T19:31:38.106Z</time>
      </trkpt>
      <trkpt lat="50.594836" lon="5.414042">
        <ele>120.041451</ele>
        <time>2026-03-17T19:32:02.074Z</time>
      </trkpt>
      <trkpt lat="50.595068" lon="5.414458">
        <ele>124.244305</ele>
        <time>2026-03-17T19:32:58.380Z</time>
      </trkpt>
      <trkpt lat="50.595380" lon="5.414568">
        <ele>128.067026</ele>
        <time>2026-03-17T19:33:47.073Z</time>
      </trkpt>
      <trkpt lat="50.595466" lon="5.414767">
        <ele>129.894211</ele>
        <time>2026-03-17T19:34:09.373Z</time>
      </trkpt>
      <trkpt lat="50.595462" lon="5.415251">
        <ele>133.568035</ele>
        <time>2026-03-17T19:34:51.841Z</time>
      </trkpt>
      <trkpt lat="50.595521" lon="5.415506">
        <ele>135.628012</ele>
        <time>2026-03-17T19:35:15.184Z</time>
      </trkpt>
      <trkpt lat="50.595534" lon="5.415771">
        <ele>137.645330</ele>
        <time>2026-03-17T19:35:38.020Z</time>
      </trkpt>
      <trkpt lat="50.595452" lon="5.415969">
        <ele>139.439671</ele>
        <time>2026-03-17T19:35:58.500Z</time>
      </trkpt>
      <trkpt lat="50.595333" lon="5.416078">
        <ele>141.085533</ele>
        <time>2026-03-17T19:36:17.544Z</time>
      </trkpt>
      <trkpt lat="50.594791" lon="5.416319">
        <ele>142.653599</ele>
        <time>2026-03-17T19:37:31.080Z</time>
      </trkpt>
      <trkpt lat="50.594335" lon="5.416960">
        <ele>144.039874</ele>
        <time>2026-03-17T19:38:38.232Z</time>
      </trkpt>
      <trkpt lat="50.593882" lon="5.416773">
        <ele>145.102102</ele>
        <time>2026-03-17T19:39:27.130Z</time>
      </trkpt>
      <trkpt lat="50.593504" lon="5.415932">
        <ele>142.064129</ele>
        <time>2026-03-17T19:40:41.766Z</time>
      </trkpt>
      <trkpt lat="50.592679" lon="5.414092">
        <ele>131.171672</ele>
        <time>2026-03-17T19:43:28.572Z</time>
      </trkpt>
      <trkpt lat="50.592832" lon="5.414098">
        <ele>129.543387</ele>
        <time>2026-03-17T19:43:45.958Z</time>
      </trkpt>
      <trkpt lat="50.593069" lon="5.414210">
        <ele>126.910901</ele>
        <time>2026-03-17T19:44:14.070Z</time>
      </trkpt>
      <trkpt lat="50.593032" lon="5.413954">
        <ele>125.137645</ele>
        <time>2026-03-17T19:44:33.500Z</time>
      </trkpt>
      <trkpt lat="50.593035" lon="5.413804">
        <ele>124.124049</ele>
        <time>2026-03-17T19:44:44.751Z</time>
      </trkpt>
      <trkpt lat="50.593110" lon="5.413787">
        <ele>123.317900</ele>
        <time>2026-03-17T19:44:53.586Z</time>
      </trkpt>
      <trkpt lat="50.593249" lon="5.413873">
        <ele>121.729089</ele>
        <time>2026-03-17T19:45:11.164Z</time>
      </trkpt>
      <trkpt lat="50.593273" lon="5.413804">
        <ele>121.197701</ele>
        <time>2026-03-17T19:45:17.076Z</time>
      </trkpt>
      <trkpt lat="50.593256" lon="5.413664">
        <ele>120.235010</ele>
        <time>2026-03-17T19:45:27.746Z</time>
      </trkpt>
      <trkpt lat="50.593338" lon="5.413621">
        <ele>119.315536</ele>
        <time>2026-03-17T19:45:37.988Z</time>
      </trkpt>
      <trkpt lat="50.593478" lon="5.413718">
        <ele>117.688354</ele>
        <time>2026-03-17T19:45:56.492Z</time>
      </trkpt>
      <trkpt lat="50.593770" lon="5.413514">
        <ele>114.289921</ele>
        <time>2026-03-17T19:46:38.092Z</time>
      </trkpt>
      <trkpt lat="50.593883" lon="5.413352">
        <ele>112.579184</ele>
        <time>2026-03-17T19:46:58.878Z</time>
      </trkpt>
      <trkpt lat="50.593773" lon="5.413292">
        <ele>111.095590</ele>
        <time>2026-03-17T19:47:14.762Z</time>
      </trkpt>
      <trkpt lat="50.593105" lon="5.412425">
        <ele>100.064518</ele>
        <time>2026-03-17T19:49:08.609Z</time>
      </trkpt>
      <trkpt lat="50.593017" lon="5.412409">
        <ele>98.935529</ele>
        <time>2026-03-17T19:49:19.843Z</time>
      </trkpt>
      <trkpt lat="50.592976" lon="5.412361">
        <ele>98.284481</ele>
        <time>2026-03-17T19:49:26.161Z</time>
      </trkpt>
      <trkpt lat="50.592961" lon="5.412280">
        <ele>97.601818</ele>
        <time>2026-03-17T19:49:32.676Z</time>
      </trkpt>
      <trkpt lat="50.592867" lon="5.412099">
        <ele>95.709792</ele>
        <time>2026-03-17T19:49:50.818Z</time>
      </trkpt>
      <trkpt lat="50.592624" lon="5.411916">
        <ele>92.277077</ele>
        <time>2026-03-17T19:50:22.868Z</time>
      </trkpt>
      <trkpt lat="50.592368" lon="5.411856">
        <ele>89.864052</ele>
        <time>2026-03-17T19:50:52.181Z</time>
      </trkpt>
      <trkpt lat="50.592246" lon="5.411861">
        <ele>89.463308</ele>
        <time>2026-03-17T19:51:05.558Z</time>
      </trkpt>
      <trkpt lat="50.592112" lon="5.411917">
        <ele>89.008074</ele>
        <time>2026-03-17T19:51:20.237Z</time>
      </trkpt>
      <trkpt lat="50.592010" lon="5.412017">
        <ele>88.613565</ele>
        <time>2026-03-17T19:51:32.715Z</time>
      </trkpt>
      <trkpt lat="50.591909" lon="5.412033">
        <ele>88.280242</ele>
        <time>2026-03-17T19:51:43.051Z</time>
      </trkpt>
      <trkpt lat="50.591710" lon="5.411820">
        <ele>87.490207</ele>
        <time>2026-03-17T19:52:07.610Z</time>
      </trkpt>
      <trkpt lat="50.591058" lon="5.411867">
        <ele>85.347012</ele>
        <time>2026-03-17T19:53:16.045Z</time>
      </trkpt>
      <trkpt lat="50.590835" lon="5.411833">
        <ele>84.611330</ele>
        <time>2026-03-17T19:53:40.080Z</time>
      </trkpt>
      <trkpt lat="50.590643" lon="5.411754">
        <ele>84.230197</ele>
        <time>2026-03-17T19:54:01.106Z</time>
      </trkpt>
      <trkpt lat="50.590430" lon="5.411521">
        <ele>84.132513</ele>
        <time>2026-03-17T19:54:28.301Z</time>
      </trkpt>
      <trkpt lat="50.590312" lon="5.411341">
        <ele>84.070637</ele>
        <time>2026-03-17T19:54:45.565Z</time>
      </trkpt>
      <trkpt lat="50.590311" lon="5.411339">
        <ele>84.070028</ele>
        <time>2026-03-17T19:54:45.724Z</time>
      </trkpt>
      <trkpt lat="50.590213" lon="5.411108">
        <ele>84.003587</ele>
        <time>2026-03-17T19:55:04.321Z</time>
      </trkpt>
      <trkpt lat="50.590150" lon="5.410850">
        <ele>83.937482</ele>
        <time>2026-03-17T19:55:22.905Z</time>
      </trkpt>
      <trkpt lat="50.590399" lon="5.410880">
        <ele>83.843413</ele>
        <time>2026-03-17T19:55:49.059Z</time>
      </trkpt>
      <trkpt lat="50.590964" lon="5.411095">
        <ele>83.624463</ele>
        <time>2026-03-17T19:56:50.043Z</time>
      </trkpt>
      <trkpt lat="50.591009" lon="5.410934">
        <ele>83.676084</ele>
        <time>2026-03-17T19:57:03.071Z</time>
      </trkpt>
      <trkpt lat="50.591082" lon="5.410812">
        <ele>84.340892</ele>
        <time>2026-03-17T19:57:15.845Z</time>
      </trkpt>
      <trkpt lat="50.591083" lon="5.410682">
        <ele>84.856442</ele>
        <time>2026-03-17T19:57:26.043Z</time>
      </trkpt>
      <trkpt lat="50.591080" lon="5.410639">
        <ele>85.027984</ele>
        <time>2026-03-17T19:57:29.489Z</time>
      </trkpt>
      <trkpt lat="50.591208" lon="5.410257">
        <ele>86.740845</ele>
        <time>2026-03-17T19:58:03.177Z</time>
      </trkpt>
      <trkpt lat="50.591384" lon="5.410282">
        <ele>87.844657</ele>
        <time>2026-03-17T19:58:23.930Z</time>
      </trkpt>
      <trkpt lat="50.591660" lon="5.410389">
        <ele>89.620085</ele>
        <time>2026-03-17T19:58:55.698Z</time>
      </trkpt>
      <trkpt lat="50.591807" lon="5.410346">
        <ele>90.553991</ele>
        <time>2026-03-17T19:59:12.323Z</time>
      </trkpt>
      <trkpt lat="50.592124" lon="5.410049">
        <ele>92.857848</ele>
        <time>2026-03-17T19:59:56.956Z</time>
      </trkpt>
      <trkpt lat="50.592125" lon="5.410048">
        <ele>92.865247</ele>
        <time>2026-03-17T19:59:57.122Z</time>
      </trkpt>
      <trkpt lat="50.592255" lon="5.410611">
        <ele>96.084281</ele>
        <time>2026-03-17T20:00:47.374Z</time>
      </trkpt>
      <trkpt lat="50.592340" lon="5.410830">
        <ele>99.154804</ele>
        <time>2026-03-17T20:01:11.107Z</time>
      </trkpt>
      <trkpt lat="50.592442" lon="5.410842">
        <ele>101.082131</ele>
        <time>2026-03-17T20:01:27.146Z</time>
      </trkpt>
      <trkpt lat="50.592509" lon="5.410668">
        <ele>103.516481</ele>
        <time>2026-03-17T20:01:48.384Z</time>
      </trkpt>
      <trkpt lat="50.592495" lon="5.410526">
        <ele>105.235456</ele>
        <time>2026-03-17T20:02:03.965Z</time>
      </trkpt>
      <trkpt lat="50.592321" lon="5.409765">
        <ele>114.911038</ele>
        <time>2026-03-17T20:03:43.764Z</time>
      </trkpt>
      <trkpt lat="50.592307" lon="5.408948">
        <ele>124.687639</ele>
        <time>2026-03-17T20:05:45.141Z</time>
      </trkpt>
      <trkpt lat="50.592227" lon="5.408489">
        <ele>130.018545</ele>
        <time>2026-03-17T20:06:54.295Z</time>
      </trkpt>
      <trkpt lat="50.592014" lon="5.407754">
        <ele>137.579820</ele>
        <time>2026-03-17T20:08:40.865Z</time>
      </trkpt>
      <trkpt lat="50.592079" lon="5.407580">
        <ele>139.469203</ele>
        <time>2026-03-17T20:09:03.934Z</time>
      </trkpt>
      <trkpt lat="50.592191" lon="5.407685">
        <ele>141.390548</ele>
        <time>2026-03-17T20:09:26.457Z</time>
      </trkpt>
      <trkpt lat="50.592243" lon="5.407610">
        <ele>142.429903</ele>
        <time>2026-03-17T20:09:37.950Z</time>
      </trkpt>
      <trkpt lat="50.592186" lon="5.407343">
        <ele>145.066113</ele>
        <time>2026-03-17T20:10:05.697Z</time>
      </trkpt>
      <trkpt lat="50.592087" lon="5.407127">
        <ele>147.559320</ele>
        <time>2026-03-17T20:10:29.266Z</time>
      </trkpt>
      <trkpt lat="50.591911" lon="5.406605">
        <ele>153.090696</ele>
        <time>2026-03-17T20:11:17.893Z</time>
      </trkpt>
      <trkpt lat="50.591911" lon="5.406605">
        <ele>153.090696</ele>
        <time>2026-03-17T20:11:17.949Z</time>
      </trkpt>
      <trkpt lat="50.591750" lon="5.406740">
        <ele>155.120101</ele>
        <time>2026-03-17T20:11:36.222Z</time>
      </trkpt>
      <trkpt lat="50.591640" lon="5.406320">
        <ele>154.278408</ele>
        <time>2026-03-17T20:12:05.105Z</time>
      </trkpt>
      <trkpt lat="50.591580" lon="5.406080">
        <ele>153.800557</ele>
        <time>2026-03-17T20:12:21.495Z</time>
      </trkpt>
      <trkpt lat="50.591470" lon="5.405700">
        <ele>153.026848</ele>
        <time>2026-03-17T20:12:48.029Z</time>
      </trkpt>
      <trkpt lat="50.591200" lon="5.405550">
        <ele>152.191377</ele>
        <time>2026-03-17T20:13:16.693Z</time>
      </trkpt>
      <trkpt lat="50.591030" lon="5.405590">
        <ele>151.689786</ele>
        <time>2026-03-17T20:13:33.920Z</time>
      </trkpt>
      <trkpt lat="50.590910" lon="5.405670">
        <ele>151.309535</ele>
        <time>2026-03-17T20:13:46.991Z</time>
      </trkpt>
      <trkpt lat="50.590860" lon="5.405730">
        <ele>151.126110</ele>
        <time>2026-03-17T20:13:53.300Z</time>
      </trkpt>
      <trkpt lat="50.590800" lon="5.405660">
        <ele>150.908225</ele>
        <time>2026-03-17T20:14:00.798Z</time>
      </trkpt>
      <trkpt lat="50.590776" lon="5.405690">
        <ele>150.818816</ele>
        <time>2026-03-17T20:14:03.876Z</time>
      </trkpt>
      <trkpt lat="50.590776" lon="5.405690">
        <ele>150.818816</ele>
        <time>2026-03-17T20:14:03.904Z</time>
      </trkpt>
      <trkpt lat="50.590686" lon="5.405767">
        <ele>150.519941</ele>
        <time>2026-03-17T20:14:16.494Z</time>
      </trkpt>
      <trkpt lat="50.590628" lon="5.405924">
        <ele>150.183421</ele>
        <time>2026-03-17T20:14:30.513Z</time>
      </trkpt>
      <trkpt lat="50.590650" lon="5.406066">
        <ele>149.797687</ele>
        <time>2026-03-17T20:14:41.973Z</time>
      </trkpt>
      <trkpt lat="50.590614" lon="5.406373">
        <ele>148.237249</ele>
        <time>2026-03-17T20:15:06.147Z</time>
      </trkpt>
      <trkpt lat="50.590668" lon="5.406647">
        <ele>146.803239</ele>
        <time>2026-03-17T20:15:28.173Z</time>
      </trkpt>
      <trkpt lat="50.590612" lon="5.406753">
        <ele>146.113965</ele>
        <time>2026-03-17T20:15:38.822Z</time>
      </trkpt>
      <trkpt lat="50.590518" lon="5.406758">
        <ele>145.373469</ele>
        <time>2026-03-17T20:15:50.067Z</time>
      </trkpt>
      <trkpt lat="50.590417" lon="5.406647">
        <ele>144.403861</ele>
        <time>2026-03-17T20:16:04.630Z</time>
      </trkpt>
      <trkpt lat="50.590321" lon="5.406642">
        <ele>143.647627</ele>
        <time>2026-03-17T20:16:15.946Z</time>
      </trkpt>
      <trkpt lat="50.590246" lon="5.406766">
        <ele>142.791579</ele>
        <time>2026-03-17T20:16:28.602Z</time>
      </trkpt>
      <trkpt lat="50.590046" lon="5.406607">
        <ele>141.027760</ele>
        <time>2026-03-17T20:16:53.849Z</time>
      </trkpt>
      <trkpt lat="50.589719" lon="5.406313">
        <ele>138.063366</ele>
        <time>2026-03-17T20:17:36.276Z</time>
      </trkpt>
      <trkpt lat="50.589416" lon="5.405971">
        <ele>135.007013</ele>
        <time>2026-03-17T20:18:17.163Z</time>
      </trkpt>
      <trkpt lat="50.589239" lon="5.405838">
        <ele>133.191385</ele>
        <time>2026-03-17T20:18:38.649Z</time>
      </trkpt>
      <trkpt lat="50.589172" lon="5.406321">
        <ele>130.285410</ele>
        <time>2026-03-17T20:19:13.701Z</time>
      </trkpt>
      <trkpt lat="50.589128" lon="5.406946">
        <ele>126.589237</ele>
        <time>2026-03-17T20:20:01.521Z</time>
      </trkpt>
      <trkpt lat="50.589199" lon="5.407078">
        <ele>125.572343</ele>
        <time>2026-03-17T20:20:15.251Z</time>
      </trkpt>
      <trkpt lat="50.589516" lon="5.407257">
        <ele>122.454585</ele>
        <time>2026-03-17T20:20:58.773Z</time>
      </trkpt>
      <trkpt lat="50.589588" lon="5.407357">
        <ele>121.565859</ele>
        <time>2026-03-17T20:21:11.059Z</time>
      </trkpt>
      <trkpt lat="50.589629" lon="5.408357">
        <ele>119.288121</ele>
        <time>2026-03-17T20:22:27.865Z</time>
      </trkpt>
      <trkpt lat="50.589746" lon="5.408641">
        <ele>119.357115</ele>
        <time>2026-03-17T20:22:51.469Z</time>
      </trkpt>
      <trkpt lat="50.589700" lon="5.408648">
        <ele>119.371949</ele>
        <time>2026-03-17T20:22:56.212Z</time>
      </trkpt>
      <trkpt lat="50.589589" lon="5.408771">
        <ele>119.415513</ele>
        <time>2026-03-17T20:23:10.071Z</time>
      </trkpt>
      <trkpt lat="50.589463" lon="5.408784">
        <ele>119.456045</ele>
        <time>2026-03-17T20:23:23.110Z</time>
      </trkpt>
      <trkpt lat="50.589387" lon="5.408542">
        <ele>119.511066</ele>
        <time>2026-03-17T20:23:42.686Z</time>
      </trkpt>
      <trkpt lat="50.589307" lon="5.408286">
        <ele>119.569214</ele>
        <time>2026-03-17T20:24:04.878Z</time>
      </trkpt>
      <trkpt lat="50.589235" lon="5.408181">
        <ele>119.600710</ele>
        <time>2026-03-17T20:24:17.041Z</time>
      </trkpt>
      <trkpt lat="50.589078" lon="5.408174">
        <ele>119.651126</ele>
        <time>2026-03-17T20:24:37.375Z</time>
      </trkpt>
      <trkpt lat="50.588954" lon="5.408046">
        <ele>119.698715</ele>
        <time>2026-03-17T20:24:57.196Z</time>
      </trkpt>
      <trkpt lat="50.588829" lon="5.407415">
        <ele>118.783692</ele>
        <time>2026-03-17T20:25:53.969Z</time>
      </trkpt>
      <trkpt lat="50.588607" lon="5.407373">
        <ele>118.008878</ele>
        <time>2026-03-17T20:26:21.347Z</time>
      </trkpt>
      <trkpt lat="50.588442" lon="5.407421">
        <ele>117.427442</ele>
        <time>2026-03-17T20:26:39.626Z</time>
      </trkpt>
      <trkpt lat="50.588372" lon="5.407486">
        <ele>117.145860</ele>
        <time>2026-03-17T20:26:47.898Z</time>
      </trkpt>
      <trkpt lat="50.588273" lon="5.407683">
        <ele>116.593109</ele>
        <time>2026-03-17T20:27:04.533Z</time>
      </trkpt>
      <trkpt lat="50.588210" lon="5.408013">
        <ele>115.834981</ele>
        <time>2026-03-17T20:27:28.931Z</time>
      </trkpt>
      <trkpt lat="50.588202" lon="5.408394">
        <ele>114.996304</ele>
        <time>2026-03-17T20:27:57.871Z</time>
      </trkpt>
      <trkpt lat="50.588223" lon="5.408836">
        <ele>114.021163</ele>
        <time>2026-03-17T20:28:33.741Z</time>
      </trkpt>
      <trkpt lat="50.588427" lon="5.409760">
        <ele>106.247013</ele>
        <time>2026-03-17T20:29:57.693Z</time>
      </trkpt>
      <trkpt lat="50.588500" lon="5.410211">
        <ele>101.718860</ele>
        <time>2026-03-17T20:30:38.363Z</time>
      </trkpt>
      <trkpt lat="50.588521" lon="5.410521">
        <ele>98.685740</ele>
        <time>2026-03-17T20:31:05.020Z</time>
      </trkpt>
      <trkpt lat="50.588498" lon="5.410857">
        <ele>95.397840</ele>
        <time>2026-03-17T20:31:33.237Z</time>
      </trkpt>
      <trkpt lat="50.588521" lon="5.411359">
        <ele>90.501164</ele>
        <time>2026-03-17T20:32:14.518Z</time>
      </trkpt>
      <trkpt lat="50.588510" lon="5.411515">
        <ele>88.974103</ele>
        <time>2026-03-17T20:32:27.195Z</time>
      </trkpt>
      <trkpt lat="50.588398" lon="5.412128">
        <ele>84.490160</ele>
        <time>2026-03-17T20:33:17.737Z</time>
      </trkpt>
      <trkpt lat="50.588276" lon="5.412541">
        <ele>82.457513</ele>
        <time>2026-03-17T20:33:52.271Z</time>
      </trkpt>
      <trkpt lat="50.588091" lon="5.412896">
        <ele>80.408088</ele>
        <time>2026-03-17T20:34:26.052Z</time>
      </trkpt>
      <trkpt lat="50.588167" lon="5.413314">
        <ele>78.467860</ele>
        <time>2026-03-17T20:34:57.410Z</time>
      </trkpt>
      <trkpt lat="50.588442" lon="5.413141">
        <ele>76.386563</ele>
        <time>2026-03-17T20:35:30.682Z</time>
      </trkpt>
      <trkpt lat="50.588757" lon="5.412944">
        <ele>74.004456</ele>
        <time>2026-03-17T20:36:07.413Z</time>
      </trkpt>
      <trkpt lat="50.588801" lon="5.412912">
        <ele>73.663828</ele>
        <time>2026-03-17T20:36:12.517Z</time>
      </trkpt>
      <trkpt lat="50.588846" lon="5.412880">
        <ele>73.316807</ele>
        <time>2026-03-17T20:36:17.588Z</time>
      </trkpt>
      <trkpt lat="50.588942" lon="5.412856">
        <ele>73.837950</ele>
        <time>2026-03-17T20:36:27.626Z</time>
      </trkpt>
      <trkpt lat="50.589019" lon="5.412919">
        <ele>74.318159</ele>
        <time>2026-03-17T20:36:36.350Z</time>
      </trkpt>
      <trkpt lat="50.588826" lon="5.413351">
        <ele>76.174211</ele>
        <time>2026-03-17T20:37:12.031Z</time>
      </trkpt>
      <trkpt lat="50.588694" lon="5.413531">
        <ele>77.140487</ele>
        <time>2026-03-17T20:37:30.955Z</time>
      </trkpt>
      <trkpt lat="50.589079" lon="5.414547">
        <ele>81.297896</ele>
        <time>2026-03-17T20:39:01.473Z</time>
      </trkpt>
      <trkpt lat="50.589089" lon="5.414615">
        <ele>81.543150</ele>
        <time>2026-03-17T20:39:07.546Z</time>
      </trkpt>
      <trkpt lat="50.588998" lon="5.414725">
        <ele>82.177992</ele>
        <time>2026-03-17T20:39:23.002Z</time>
      </trkpt>
      <trkpt lat="50.588848" lon="5.414836">
        <ele>83.095199</ele>
        <time>2026-03-17T20:39:47.390Z</time>
      </trkpt>
      <trkpt lat="50.588870" lon="5.414914">
        <ele>83.736891</ele>
        <time>2026-03-17T20:39:56.501Z</time>
      </trkpt>
      <trkpt lat="50.588953" lon="5.414959">
        <ele>85.467989</ele>
        <time>2026-03-17T20:40:10.653Z</time>
      </trkpt>
      <trkpt lat="50.589106" lon="5.414947">
        <ele>88.489040</ele>
        <time>2026-03-17T20:40:37.020Z</time>
      </trkpt>
      <trkpt lat="50.589494" lon="5.415198">
        <ele>96.760996</ele>
        <time>2026-03-17T20:41:56.257Z</time>
      </trkpt>
      <trkpt lat="50.589611" lon="5.415120">
        <ele>99.266512</ele>
        <time>2026-03-17T20:42:21.924Z</time>
      </trkpt>
      <trkpt lat="50.589835" lon="5.415122">
        <ele>103.684087</ele>
        <time>2026-03-17T20:43:08.614Z</time>
      </trkpt>
      <trkpt lat="50.590038" lon="5.415193">
        <ele>107.784955</ele>
        <time>2026-03-17T20:43:55.808Z</time>
      </trkpt>
      <trkpt lat="50.590284" lon="5.415474">
        <ele>113.777716</ele>
        <time>2026-03-17T20:45:05.631Z</time>
      </trkpt>
      <trkpt lat="50.590493" lon="5.415953">
        <ele>120.098360</ele>
        <time>2026-03-17T20:46:27.775Z</time>
      </trkpt>
      <trkpt lat="50.590643" lon="5.416065">
        <ele>122.023725</ele>
        <time>2026-03-17T20:47:02.876Z</time>
      </trkpt>
      <trkpt lat="50.590828" lon="5.416518">
        <ele>125.989926</ele>
        <time>2026-03-17T20:48:07.045Z</time>
      </trkpt>
      <trkpt lat="50.590989" lon="5.417036">
        <ele>130.236765</ele>
        <time>2026-03-17T20:49:00.553Z</time>
      </trkpt>
      <trkpt lat="50.591097" lon="5.417228">
        <ele>132.125652</ele>
        <time>2026-03-17T20:49:21.297Z</time>
      </trkpt>
      <trkpt lat="50.590930" lon="5.417435">
        <ele>134.590428</ele>
        <time>2026-03-17T20:49:47.063Z</time>
      </trkpt>
      <trkpt lat="50.590767" lon="5.417511">
        <ele>136.562091</ele>
        <time>2026-03-17T20:50:06.779Z</time>
      </trkpt>
      <trkpt lat="50.590670" lon="5.417483">
        <ele>137.705893</ele>
        <time>2026-03-17T20:50:17.615Z</time>
      </trkpt>
      <trkpt lat="50.590496" lon="5.417297">
        <ele>139.550634</ele>
        <time>2026-03-17T20:50:39.482Z</time>
      </trkpt>
      <trkpt lat="50.590256" lon="5.417110">
        <ele>139.302575</ele>
        <time>2026-03-17T20:51:06.844Z</time>
      </trkpt>
      <trkpt lat="50.590105" lon="5.417152">
        <ele>139.160519</ele>
        <time>2026-03-17T20:51:22.845Z</time>
      </trkpt>
      <trkpt lat="50.590106" lon="5.417408">
        <ele>139.009948</ele>
        <time>2026-03-17T20:51:39.963Z</time>
      </trkpt>
      <trkpt lat="50.590069" lon="5.417702">
        <ele>138.833664</ele>
        <time>2026-03-17T20:52:00.045Z</time>
      </trkpt>
      <trkpt lat="50.590038" lon="5.417864">
        <ele>138.734148</ele>
        <time>2026-03-17T20:52:11.372Z</time>
      </trkpt>
      <trkpt lat="50.590016" lon="5.417899">
        <ele>138.705180</ele>
        <time>2026-03-17T20:52:14.582Z</time>
      </trkpt>
      <trkpt lat="50.589910" lon="5.418068">
        <ele>138.565452</ele>
        <time>2026-03-17T20:52:30.220Z</time>
      </trkpt>
      <trkpt lat="50.589901" lon="5.418288">
        <ele>138.435788</ele>
        <time>2026-03-17T20:52:44.558Z</time>
      </trkpt>
      <trkpt lat="50.590367" lon="5.419932">
        <ele>137.946743</ele>
        <time>2026-03-17T20:54:41.749Z</time>
      </trkpt>
      <trkpt lat="50.590382" lon="5.420074">
        <ele>137.949579</ele>
        <time>2026-03-17T20:54:51.062Z</time>
      </trkpt>
      <trkpt lat="50.590357" lon="5.420339">
        <ele>137.954858</ele>
        <time>2026-03-17T20:55:08.538Z</time>
      </trkpt>
      <trkpt lat="50.590330" lon="5.420587">
        <ele>137.959817</ele>
        <time>2026-03-17T20:55:24.913Z</time>
      </trkpt>
      <trkpt lat="50.590434" lon="5.421146">
        <ele>137.971295</ele>
        <time>2026-03-17T20:56:02.212Z</time>
      </trkpt>
      <trkpt lat="50.590550" lon="5.422224">
        <ele>139.120455</ele>
        <time>2026-03-17T20:57:16.646Z</time>
      </trkpt>
      <trkpt lat="50.590600" lon="5.422425">
        <ele>139.673265</ele>
        <time>2026-03-17T20:57:32.908Z</time>
      </trkpt>
      <trkpt lat="50.590752" lon="5.422523">
        <ele>140.335737</ele>
        <time>2026-03-17T20:57:52.701Z</time>
      </trkpt>
      <trkpt lat="50.590858" lon="5.422855">
        <ele>141.287355</ele>
        <time>2026-03-17T20:58:21.639Z</time>
      </trkpt>
      <trkpt lat="50.590913" lon="5.422949">
        <ele>141.614701</ele>
        <time>2026-03-17T20:58:31.311Z</time>
      </trkpt>
      <trkpt lat="50.591063" lon="5.423099">
        <ele>142.331363</ele>
        <time>2026-03-17T20:58:52.521Z</time>
      </trkpt>
      <trkpt lat="50.591394" lon="5.423561">
        <ele>144.115208</ele>
        <time>2026-03-17T20:59:44.129Z</time>
      </trkpt>
      <trkpt lat="50.591677" lon="5.423850">
        <ele>145.073125</ele>
        <time>2026-03-17T21:00:22.221Z</time>
      </trkpt>
      <trkpt lat="50.591544" lon="5.423986">
        <ele>144.624601</ele>
        <time>2026-03-17T21:00:39.545Z</time>
      </trkpt>
      <trkpt lat="50.591509" lon="5.424020">
        <ele>144.508287</ele>
        <time>2026-03-17T21:00:43.707Z</time>
      </trkpt>
      <trkpt lat="50.591544" lon="5.423986">
        <ele>144.391973</ele>
        <time>2026-03-17T21:00:48.266Z</time>
      </trkpt>
      <trkpt lat="50.591552" lon="5.424203">
        <ele>144.001642</ele>
        <time>2026-03-17T21:01:02.737Z</time>
      </trkpt>
      <trkpt lat="50.591651" lon="5.424851">
        <ele>142.804788</ele>
        <time>2026-03-17T21:01:45.071Z</time>
      </trkpt>
      <trkpt lat="50.591680" lon="5.425311">
        <ele>141.974691</ele>
        <time>2026-03-17T21:02:16.589Z</time>
      </trkpt>
      <trkpt lat="50.591853" lon="5.426270">
        <ele>140.184415</ele>
        <time>2026-03-17T21:03:28.809Z</time>
      </trkpt>
      <trkpt lat="50.591904" lon="5.426406">
        <ele>139.396662</ele>
        <time>2026-03-17T21:03:40.684Z</time>
      </trkpt>
      <trkpt lat="50.592074" lon="5.427323">
        <ele>134.230171</ele>
        <time>2026-03-17T21:04:55.133Z</time>
      </trkpt>
      <trkpt lat="50.592123" lon="5.427484">
        <ele>133.264556</ele>
        <time>2026-03-17T21:05:09.455Z</time>
      </trkpt>
      <trkpt lat="50.592200" lon="5.427614">
        <ele>132.302994</ele>
        <time>2026-03-17T21:05:23.585Z</time>
      </trkpt>
      <trkpt lat="50.592320" lon="5.427974">
        <ele>130.103969</ele>
        <time>2026-03-17T21:05:55.358Z</time>
      </trkpt>
      <trkpt lat="50.592455" lon="5.429005">
        <ele>125.087046</ele>
        <time>2026-03-17T21:07:11.801Z</time>
      </trkpt>
      <trkpt lat="50.593098" lon="5.428955">
        <ele>128.479851</ele>
        <time>2026-03-17T21:08:20.558Z</time>
      </trkpt>
      <trkpt lat="50.593182" lon="5.429018">
        <ele>128.970155</ele>
        <time>2026-03-17T21:08:31.998Z</time>
      </trkpt>
      <trkpt lat="50.593244" lon="5.429157">
        <ele>129.538505</ele>
        <time>2026-03-17T21:08:45.576Z</time>
      </trkpt>
      <trkpt lat="50.593338" lon="5.429478">
        <ele>130.721187</ele>
        <time>2026-03-17T21:09:15.028Z</time>
      </trkpt>
      <trkpt lat="50.593388" lon="5.429788">
        <ele>131.791264</ele>
        <time>2026-03-17T21:09:42.843Z</time>
      </trkpt>
      <trkpt lat="50.593474" lon="5.430063">
        <ele>132.816872</ele>
        <time>2026-03-17T21:10:09.379Z</time>
      </trkpt>
      <trkpt lat="50.593692" lon="5.430514">
        <ele>134.945023</ele>
        <time>2026-03-17T21:10:57.855Z</time>
      </trkpt>
      <trkpt lat="50.593879" lon="5.430814">
        <ele>137.154924</ele>
        <time>2026-03-17T21:11:33.385Z</time>
      </trkpt>
      <trkpt lat="50.594090" lon="5.431222">
        <ele>139.920949</ele>
        <time>2026-03-17T21:12:17.111Z</time>
      </trkpt>
      <trkpt lat="50.594351" lon="5.431629">
        <ele>142.961706</ele>
        <time>2026-03-17T21:13:04.249Z</time>
      </trkpt>
      <trkpt lat="50.594649" lon="5.432466">
        <ele>148.005675</ele>
        <time>2026-03-17T21:14:20.131Z</time>
      </trkpt>
      <trkpt lat="50.594874" lon="5.433019">
        <ele>150.533566</ele>
        <time>2026-03-17T21:15:11.022Z</time>
      </trkpt>
      <trkpt lat="50.595095" lon="5.433217">
        <ele>151.776828</ele>
        <time>2026-03-17T21:15:42.142Z</time>
      </trkpt>
      <trkpt lat="50.595283" lon="5.433137">
        <ele>152.729113</ele>
        <time>2026-03-17T21:16:05.578Z</time>
      </trkpt>
      <trkpt lat="50.595453" lon="5.432890">
        <ele>153.860025</ele>
        <time>2026-03-17T21:16:32.900Z</time>
      </trkpt>
      <trkpt lat="50.595477" lon="5.432670">
        <ele>154.552956</ele>
        <time>2026-03-17T21:16:49.359Z</time>
      </trkpt>
      <trkpt lat="50.595552" lon="5.432764">
        <ele>155.021627</ele>
        <time>2026-03-17T21:17:00.534Z</time>
      </trkpt>
      <trkpt lat="50.595726" lon="5.433142">
        <ele>156.471040</ele>
        <time>2026-03-17T21:17:33.958Z</time>
      </trkpt>
      <trkpt lat="50.595772" lon="5.433178">
        <ele>156.722212</ele>
        <time>2026-03-17T21:17:39.506Z</time>
      </trkpt>
      <trkpt lat="50.595792" lon="5.433242">
        <ele>156.943647</ele>
        <time>2026-03-17T21:17:44.585Z</time>
      </trkpt>
      <trkpt lat="50.595873" lon="5.433299">
        <ele>157.377466</ele>
        <time>2026-03-17T21:17:54.444Z</time>
      </trkpt>
      <trkpt lat="50.595980" lon="5.433563">
        <ele>158.063981</ele>
        <time>2026-03-17T21:18:16.235Z</time>
      </trkpt>
      <trkpt lat="50.596136" lon="5.433712">
        <ele>158.236602</ele>
        <time>2026-03-17T21:18:36.309Z</time>
      </trkpt>
      <trkpt lat="50.596201" lon="5.433709">
        <ele>158.298132</ele>
        <time>2026-03-17T21:18:43.516Z</time>
      </trkpt>
      <trkpt lat="50.596274" lon="5.433823">
        <ele>158.395393</ele>
        <time>2026-03-17T21:18:54.679Z</time>
      </trkpt>
      <trkpt lat="50.596267" lon="5.433887">
        <ele>158.434400</ele>
        <time>2026-03-17T21:18:59.222Z</time>
      </trkpt>
      <trkpt lat="50.596305" lon="5.433934">
        <ele>158.480114</ele>
        <time>2026-03-17T21:19:04.404Z</time>
      </trkpt>
      <trkpt lat="50.596238" lon="5.434379">
        <ele>158.754813</ele>
        <time>2026-03-17T21:19:34.993Z</time>
      </trkpt>
      <trkpt lat="50.596235" lon="5.435305">
        <ele>159.311012</ele>
        <time>2026-03-17T21:20:34.910Z</time>
      </trkpt>
      <trkpt lat="50.592807" lon="5.435295">
        <ele>152.863673</ele>
        <time>2026-03-17T21:26:26.306Z</time>
      </trkpt>
      <trkpt lat="50.592109" lon="5.435374">
        <ele>149.333431</ele>
        <time>2026-03-17T21:27:47.759Z</time>
      </trkpt>
      <trkpt lat="50.591865" lon="5.435276">
        <ele>146.735141</ele>
        <time>2026-03-17T21:28:18.733Z</time>
      </trkpt>
      <trkpt lat="50.591274" lon="5.434920">
        <ele>140.206162</ele>
        <time>2026-03-17T21:29:38.329Z</time>
      </trkpt>
      <trkpt lat="50.591134" lon="5.434907">
        <ele>138.759051</ele>
        <time>2026-03-17T21:29:55.504Z</time>
      </trkpt>
      <trkpt lat="50.590900" lon="5.435033">
        <ele>136.207319</ele>
        <time>2026-03-17T21:30:25.335Z</time>
      </trkpt>
      <trkpt lat="50.590651" lon="5.435249">
        <ele>133.274129</ele>
        <time>2026-03-17T21:30:58.985Z</time>
      </trkpt>
      <trkpt lat="50.590753" lon="5.436184">
        <ele>127.427242</ele>
        <time>2026-03-17T21:32:07.936Z</time>
      </trkpt>
      <trkpt lat="50.590845" lon="5.436688">
        <ele>124.245856</ele>
        <time>2026-03-17T21:32:45.489Z</time>
      </trkpt>
      <trkpt lat="50.591108" lon="5.437218">
        <ele>120.164975</ele>
        <time>2026-03-17T21:33:34.031Z</time>
      </trkpt>
      <trkpt lat="50.591266" lon="5.437683">
        <ele>116.965454</ele>
        <time>2026-03-17T21:34:14.790Z</time>
      </trkpt>
      <trkpt lat="50.591585" lon="5.438245">
        <ele>111.247850</ele>
        <time>2026-03-17T21:35:17.530Z</time>
      </trkpt>
      <trkpt lat="50.591635" lon="5.438388">
        <ele>109.796073</ele>
        <time>2026-03-17T21:35:31.701Z</time>
      </trkpt>
      <trkpt lat="50.591621" lon="5.438517">
        <ele>108.632272</ele>
        <time>2026-03-17T21:35:43.015Z</time>
      </trkpt>
      <trkpt lat="50.591382" lon="5.438817">
        <ele>104.351463</ele>
        <time>2026-03-17T21:36:25.060Z</time>
      </trkpt>
      <trkpt lat="50.591315" lon="5.438966">
        <ele>102.727734</ele>
        <time>2026-03-17T21:36:40.912Z</time>
      </trkpt>
      <trkpt lat="50.591250" lon="5.439298">
        <ele>99.638125</ele>
        <time>2026-03-17T21:37:10.686Z</time>
      </trkpt>
      <trkpt lat="50.591230" lon="5.439565">
        <ele>97.247282</ele>
        <time>2026-03-17T21:37:33.164Z</time>
      </trkpt>
      <trkpt lat="50.591312" lon="5.440035">
        <ele>92.912717</ele>
        <time>2026-03-17T21:38:12.785Z</time>
      </trkpt>
      <trkpt lat="50.591390" lon="5.440481">
        <ele>89.823385</ele>
        <time>2026-03-17T21:38:47.911Z</time>
      </trkpt>
      <trkpt lat="50.591486" lon="5.441206">
        <ele>91.134655</ele>
        <time>2026-03-17T21:39:37.732Z</time>
      </trkpt>
      <trkpt lat="50.591608" lon="5.441582">
        <ele>91.882290</ele>
        <time>2026-03-17T21:40:07.108Z</time>
      </trkpt>
      <trkpt lat="50.591722" lon="5.441515">
        <ele>92.221638</ele>
        <time>2026-03-17T21:40:21.566Z</time>
      </trkpt>
      <trkpt lat="50.592663" lon="5.441599">
        <ele>94.700891</ele>
        <time>2026-03-17T21:42:26.737Z</time>
      </trkpt>
      <trkpt lat="50.592916" lon="5.441723">
        <ele>94.829014</ele>
        <time>2026-03-17T21:43:00.801Z</time>
      </trkpt>
      <trkpt lat="50.593429" lon="5.441991">
        <ele>95.090362</ele>
        <time>2026-03-17T21:44:00.725Z</time>
      </trkpt>
      <trkpt lat="50.593341" lon="5.442099">
        <ele>95.144304</ele>
        <time>2026-03-17T21:44:12.238Z</time>
      </trkpt>
      <trkpt lat="50.593171" lon="5.442144">
        <ele>95.227661</ele>
        <time>2026-03-17T21:44:30.234Z</time>
      </trkpt>
      <trkpt lat="50.593143" lon="5.442151">
        <ele>95.241369</ele>
        <time>2026-03-17T21:44:33.248Z</time>
      </trkpt>
      <trkpt lat="50.592844" lon="5.442093">
        <ele>95.387043</ele>
        <time>2026-03-17T21:45:06.196Z</time>
      </trkpt>
      <trkpt lat="50.592711" lon="5.442161">
        <ele>95.454658</ele>
        <time>2026-03-17T21:45:22.179Z</time>
      </trkpt>
      <trkpt lat="50.592592" lon="5.442356">
        <ele>95.537691</ele>
        <time>2026-03-17T21:45:41.600Z</time>
      </trkpt>
      <trkpt lat="50.592244" lon="5.442617">
        <ele>93.084089</ele>
        <time>2026-03-17T21:46:25.335Z</time>
      </trkpt>
      <trkpt lat="50.592152" lon="5.442817">
        <ele>92.076594</ele>
        <time>2026-03-17T21:46:43.240Z</time>
      </trkpt>
      <trkpt lat="50.592130" lon="5.442948">
        <ele>91.523840</ele>
        <time>2026-03-17T21:46:53.203Z</time>
      </trkpt>
      <trkpt lat="50.592155" lon="5.443050">
        <ele>91.077830</ele>
        <time>2026-03-17T21:47:01.033Z</time>
      </trkpt>
      <trkpt lat="50.592255" lon="5.443149">
        <ele>90.318908</ele>
        <time>2026-03-17T21:47:14.612Z</time>
      </trkpt>
      <trkpt lat="50.592374" lon="5.443193">
        <ele>89.533484</ele>
        <time>2026-03-17T21:47:28.626Z</time>
      </trkpt>
      <trkpt lat="50.592475" lon="5.443428">
        <ele>88.375861</ele>
        <time>2026-03-17T21:47:49.167Z</time>
      </trkpt>
      <trkpt lat="50.592533" lon="5.443431">
        <ele>88.002977</ele>
        <time>2026-03-17T21:47:55.508Z</time>
      </trkpt>
      <trkpt lat="50.592591" lon="5.443652">
        <ele>87.027489</ele>
        <time>2026-03-17T21:48:12.590Z</time>
      </trkpt>
      <trkpt lat="50.592242" lon="5.443652">
        <ele>84.784970</ele>
        <time>2026-03-17T21:48:51.506Z</time>
      </trkpt>
      <trkpt lat="50.592001" lon="5.444138">
        <ele>82.571911</ele>
        <time>2026-03-17T21:49:34.940Z</time>
      </trkpt>
      <trkpt lat="50.591990" lon="5.444313">
        <ele>81.981284</ele>
        <time>2026-03-17T21:49:47.613Z</time>
      </trkpt>
      <trkpt lat="50.592082" lon="5.444912">
        <ele>79.911451</ele>
        <time>2026-03-17T21:50:33.109Z</time>
      </trkpt>
      <trkpt lat="50.592077" lon="5.445078">
        <ele>79.353299</ele>
        <time>2026-03-17T21:50:45.358Z</time>
      </trkpt>
      <trkpt lat="50.592236" lon="5.445657">
        <ele>77.234545</ele>
        <time>2026-03-17T21:51:29.986Z</time>
      </trkpt>
      <trkpt lat="50.592310" lon="5.446185">
        <ele>75.418520</ele>
        <time>2026-03-17T21:52:06.745Z</time>
      </trkpt>
      <trkpt lat="50.592439" lon="5.446624">
        <ele>74.625921</ele>
        <time>2026-03-17T21:52:39.137Z</time>
      </trkpt>
      <trkpt lat="50.592552" lon="5.446680">
        <ele>74.774603</ele>
        <time>2026-03-17T21:52:51.514Z</time>
      </trkpt>
      <trkpt lat="50.592564" lon="5.446987">
        <ele>75.019682</ele>
        <time>2026-03-17T21:53:11.680Z</time>
      </trkpt>
      <trkpt lat="50.592519" lon="5.447184">
        <ele>75.186502</ele>
        <time>2026-03-17T21:53:25.254Z</time>
      </trkpt>
      <trkpt lat="50.592644" lon="5.447613">
        <ele>75.562611</ele>
        <time>2026-03-17T21:53:55.521Z</time>
      </trkpt>
      <trkpt lat="50.592637" lon="5.448162">
        <ele>76.000137</ele>
        <time>2026-03-17T21:54:31.947Z</time>
      </trkpt>
      <trkpt lat="50.592710" lon="5.448453">
        <ele>76.249449</ele>
        <time>2026-03-17T21:54:53.615Z</time>
      </trkpt>
      <trkpt lat="50.592814" lon="5.448592">
        <ele>76.420637</ele>
        <time>2026-03-17T21:55:09.097Z</time>
      </trkpt>
      <trkpt lat="50.592866" lon="5.448862">
        <ele>76.645452</ele>
        <time>2026-03-17T21:55:30.691Z</time>
      </trkpt>
      <trkpt lat="50.592952" lon="5.448872">
        <ele>76.892795</ele>
        <time>2026-03-17T21:55:41.299Z</time>
      </trkpt>
      <trkpt lat="50.592985" lon="5.448908">
        <ele>77.178359</ele>
        <time>2026-03-17T21:55:46.394Z</time>
      </trkpt>
      <trkpt lat="50.593015" lon="5.449060">
        <ele>77.897229</ele>
        <time>2026-03-17T21:55:59.027Z</time>
      </trkpt>
      <trkpt lat="50.593158" lon="5.449049">
        <ele>78.915750</ele>
        <time>2026-03-17T21:56:17.242Z</time>
      </trkpt>
      <trkpt lat="50.593378" lon="5.449185">
        <ele>80.597042</ele>
        <time>2026-03-17T21:56:47.672Z</time>
      </trkpt>
      <trkpt lat="50.593388" lon="5.449223">
        <ele>80.782816</ele>
        <time>2026-03-17T21:56:51.009Z</time>
      </trkpt>
      <trkpt lat="50.593325" lon="5.449324">
        <ele>81.422288</ele>
        <time>2026-03-17T21:57:02.740Z</time>
      </trkpt>
      <trkpt lat="50.593312" lon="5.449398">
        <ele>81.769043</ele>
        <time>2026-03-17T21:57:09.154Z</time>
      </trkpt>
      <trkpt lat="50.593325" lon="5.449515">
        <ele>82.305464</ele>
        <time>2026-03-17T21:57:18.891Z</time>
      </trkpt>
      <trkpt lat="50.593491" lon="5.449506">
        <ele>83.487095</ele>
        <time>2026-03-17T21:57:40.424Z</time>
      </trkpt>
      <trkpt lat="50.593616" lon="5.449556">
        <ele>84.404572</ele>
        <time>2026-03-17T21:57:57.090Z</time>
      </trkpt>
      <trkpt lat="50.593624" lon="5.449566">
        <ele>84.477225</ele>
        <time>2026-03-17T21:57:58.308Z</time>
      </trkpt>
      <trkpt lat="50.593665" lon="5.449619">
        <ele>84.854538</ele>
        <time>2026-03-17T21:58:05.278Z</time>
      </trkpt>
      <trkpt lat="50.593765" lon="5.449842">
        <ele>86.087555</ele>
        <time>2026-03-17T21:58:27.737Z</time>
      </trkpt>
      <trkpt lat="50.593794" lon="5.449994">
        <ele>86.804334</ele>
        <time>2026-03-17T21:58:40.489Z</time>
      </trkpt>
      <trkpt lat="50.594278" lon="5.450900">
        <ele>88.991539</ele>
        <time>2026-03-17T22:00:12.576Z</time>
      </trkpt>
      <trkpt lat="50.594646" lon="5.451791">
        <ele>88.028712</ele>
        <time>2026-03-17T22:01:22.001Z</time>
      </trkpt>
      <trkpt lat="50.594738" lon="5.452116">
        <ele>87.706393</ele>
        <time>2026-03-17T22:01:47.099Z</time>
      </trkpt>
      <trkpt lat="50.594755" lon="5.452338">
        <ele>87.503854</ele>
        <time>2026-03-17T22:02:03.202Z</time>
      </trkpt>
      <trkpt lat="50.594743" lon="5.452545">
        <ele>87.315579</ele>
        <time>2026-03-17T22:02:18.206Z</time>
      </trkpt>
      <trkpt lat="50.594687" lon="5.452773">
        <ele>87.094144</ele>
        <time>2026-03-17T22:02:36.047Z</time>
      </trkpt>
      <trkpt lat="50.594526" lon="5.453087">
        <ele>87.050305</ele>
        <time>2026-03-17T22:03:05.489Z</time>
      </trkpt>
      <trkpt lat="50.594486" lon="5.453229">
        <ele>87.111211</ele>
        <time>2026-03-17T22:03:16.684Z</time>
      </trkpt>
      <trkpt lat="50.594468" lon="5.453440">
        <ele>87.194676</ele>
        <time>2026-03-17T22:03:31.821Z</time>
      </trkpt>
      <trkpt lat="50.594496" lon="5.453842">
        <ele>87.353224</ele>
        <time>2026-03-17T22:04:00.094Z</time>
      </trkpt>
      <trkpt lat="50.594636" lon="5.454401">
        <ele>87.588816</ele>
        <time>2026-03-17T22:04:40.538Z</time>
      </trkpt>
      <trkpt lat="50.594770" lon="5.454710">
        <ele>87.735526</ele>
        <time>2026-03-17T22:05:06.520Z</time>
      </trkpt>
      <trkpt lat="50.594754" lon="5.454762">
        <ele>87.758181</ele>
        <time>2026-03-17T22:05:10.510Z</time>
      </trkpt>
      <trkpt lat="50.594779" lon="5.454768">
        <ele>87.773798</ele>
        <time>2026-03-17T22:05:13.650Z</time>
      </trkpt>
      <trkpt lat="50.594805" lon="5.454771">
        <ele>87.789898</ele>
        <time>2026-03-17T22:05:16.930Z</time>
      </trkpt>
      <trkpt lat="50.594869" lon="5.454784">
        <ele>87.829751</ele>
        <time>2026-03-17T22:05:25.164Z</time>
      </trkpt>
      <trkpt lat="50.594982" lon="5.454892">
        <ele>87.911378</ele>
        <time>2026-03-17T22:05:42.241Z</time>
      </trkpt>
      <trkpt lat="50.595082" lon="5.455109">
        <ele>88.016504</ele>
        <time>2026-03-17T22:06:05.416Z</time>
      </trkpt>
      <trkpt lat="50.595132" lon="5.455097">
        <ele>88.047739</ele>
        <time>2026-03-17T22:06:12.150Z</time>
      </trkpt>
      <trkpt lat="50.595234" lon="5.454958">
        <ele>88.961731</ele>
        <time>2026-03-17T22:06:30.919Z</time>
      </trkpt>
      <trkpt lat="50.595624" lon="5.455294">
        <ele>92.634273</ele>
        <time>2026-03-17T22:07:35.160Z</time>
      </trkpt>
      <trkpt lat="50.595885" lon="5.455357">
        <ele>94.815801</ele>
        <time>2026-03-17T22:08:12.432Z</time>
      </trkpt>
      <trkpt lat="50.595963" lon="5.455415">
        <ele>95.528415</ele>
        <time>2026-03-17T22:08:24.829Z</time>
      </trkpt>
      <trkpt lat="50.596029" lon="5.455605">
        <ele>96.664318</ele>
        <time>2026-03-17T22:08:43.772Z</time>
      </trkpt>
      <trkpt lat="50.596043" lon="5.455722">
        <ele>97.288736</ele>
        <time>2026-03-17T22:08:53.985Z</time>
      </trkpt>
      <trkpt lat="50.596263" lon="5.456154">
        <ele>100.193362</ele>
        <time>2026-03-17T22:09:39.112Z</time>
      </trkpt>
      <trkpt lat="50.596312" lon="5.456404">
        <ele>101.565567</ele>
        <time>2026-03-17T22:09:58.573Z</time>
      </trkpt>
      <trkpt lat="50.596425" lon="5.456562">
        <ele>102.813859</ele>
        <time>2026-03-17T22:10:15.197Z</time>
      </trkpt>
      <trkpt lat="50.596520" lon="5.456626">
        <ele>102.852720</ele>
        <time>2026-03-17T22:10:25.742Z</time>
      </trkpt>
      <trkpt lat="50.596593" lon="5.456626">
        <ele>102.794742</ele>
        <time>2026-03-17T22:10:33.511Z</time>
      </trkpt>
      <trkpt lat="50.596656" lon="5.456696">
        <ele>102.733514</ele>
        <time>2026-03-17T22:10:41.631Z</time>
      </trkpt>
      <trkpt lat="50.596796" lon="5.456983">
        <ele>102.551035</ele>
        <time>2026-03-17T22:11:05.564Z</time>
      </trkpt>
      <trkpt lat="50.596855" lon="5.457195">
        <ele>102.434335</ele>
        <time>2026-03-17T22:11:21.154Z</time>
      </trkpt>
      <trkpt lat="50.596844" lon="5.457327">
        <ele>102.367217</ele>
        <time>2026-03-17T22:11:30.333Z</time>
      </trkpt>
      <trkpt lat="50.597034" lon="5.457728">
        <ele>102.114946</ele>
        <time>2026-03-17T22:12:04.254Z</time>
      </trkpt>
      <trkpt lat="50.597215" lon="5.458230">
        <ele>101.823889</ele>
        <time>2026-03-17T22:12:43.647Z</time>
      </trkpt>
      <trkpt lat="50.597332" lon="5.458411">
        <ele>101.693654</ele>
        <time>2026-03-17T22:13:01.103Z</time>
      </trkpt>
      <trkpt lat="50.597470" lon="5.458496">
        <ele>101.575973</ele>
        <time>2026-03-17T22:13:16.797Z</time>
      </trkpt>
      <trkpt lat="50.597548" lon="5.458628">
        <ele>101.643047</ele>
        <time>2026-03-17T22:13:28.502Z</time>
      </trkpt>
      <trkpt lat="50.597605" lon="5.459049">
        <ele>104.657001</ele>
        <time>2026-03-17T22:13:58.176Z</time>
      </trkpt>
      <trkpt lat="50.597662" lon="5.459078">
        <ele>105.317693</ele>
        <time>2026-03-17T22:14:05.111Z</time>
      </trkpt>
      <trkpt lat="50.598005" lon="5.459087">
        <ele>109.101563</ele>
        <time>2026-03-17T22:14:48.142Z</time>
      </trkpt>
      <trkpt lat="50.598297" lon="5.459050">
        <ele>112.332771</ele>
        <time>2026-03-17T22:15:30.045Z</time>
      </trkpt>
      <trkpt lat="50.598486" lon="5.458954">
        <ele>114.523146</ele>
        <time>2026-03-17T22:16:02.912Z</time>
      </trkpt>
      <trkpt lat="50.598447" lon="5.458748">
        <ele>116.028221</ele>
        <time>2026-03-17T22:16:27.072Z</time>
      </trkpt>
      <trkpt lat="50.598431" lon="5.458386">
        <ele>118.568869</ele>
        <time>2026-03-17T22:17:10.459Z</time>
      </trkpt>
      <trkpt lat="50.598336" lon="5.457785">
        <ele>123.129005</ele>
        <time>2026-03-17T22:18:27.617Z</time>
      </trkpt>
      <trkpt lat="50.598322" lon="5.457594">
        <ele>124.667002</ele>
        <time>2026-03-17T22:18:51.316Z</time>
      </trkpt>
      <trkpt lat="50.598400" lon="5.457441">
        <ele>126.236741</ele>
        <time>2026-03-17T22:19:15.008Z</time>
      </trkpt>
      <trkpt lat="50.598399" lon="5.457242">
        <ele>127.828626</ele>
        <time>2026-03-17T22:19:38.456Z</time>
      </trkpt>
      <trkpt lat="50.598332" lon="5.456907">
        <ele>130.638223</ele>
        <time>2026-03-17T22:20:17.611Z</time>
      </trkpt>
      <trkpt lat="50.598282" lon="5.456563">
        <ele>133.461165</ele>
        <time>2026-03-17T22:20:54.471Z</time>
      </trkpt>
      <trkpt lat="50.598174" lon="5.456329">
        <ele>135.775482</ele>
        <time>2026-03-17T22:21:21.276Z</time>
      </trkpt>
      <trkpt lat="50.597885" lon="5.456261">
        <ele>139.457870</ele>
        <time>2026-03-17T22:22:00.190Z</time>
      </trkpt>
      <trkpt lat="50.597777" lon="5.456175">
        <ele>140.982873</ele>
        <time>2026-03-17T22:22:15.552Z</time>
      </trkpt>
      <trkpt lat="50.597753" lon="5.456137">
        <ele>141.411679</ele>
        <time>2026-03-17T22:22:19.959Z</time>
      </trkpt>
      <trkpt lat="50.597676" lon="5.456017">
        <ele>142.776608</ele>
        <time>2026-03-17T22:22:32.949Z</time>
      </trkpt>
      <trkpt lat="50.597569" lon="5.455640">
        <ele>143.695579</ele>
        <time>2026-03-17T22:23:01.968Z</time>
      </trkpt>
      <trkpt lat="50.597552" lon="5.455481">
        <ele>143.505697</ele>
        <time>2026-03-17T22:23:12.394Z</time>
      </trkpt>
      <trkpt lat="50.597510" lon="5.455517">
        <ele>143.416990</ele>
        <time>2026-03-17T22:23:17.258Z</time>
      </trkpt>
      <trkpt lat="50.597442" lon="5.455539">
        <ele>143.288200</ele>
        <time>2026-03-17T22:23:24.474Z</time>
      </trkpt>
      <trkpt lat="50.597352" lon="5.455249">
        <ele>142.908050</ele>
        <time>2026-03-17T22:23:45.227Z</time>
      </trkpt>
      <trkpt lat="50.597205" lon="5.454780">
        <ele>142.292069</ele>
        <time>2026-03-17T22:24:19.006Z</time>
      </trkpt>
      <trkpt lat="50.596984" lon="5.454833">
        <ele>141.877336</ele>
        <time>2026-03-17T22:24:42.854Z</time>
      </trkpt>
      <trkpt lat="50.596852" lon="5.454708">
        <ele>141.591605</ele>
        <time>2026-03-17T22:24:59.840Z</time>
      </trkpt>
      <trkpt lat="50.596705" lon="5.454492">
        <ele>141.218665</ele>
        <time>2026-03-17T22:25:22.722Z</time>
      </trkpt>
      <trkpt lat="50.596682" lon="5.454086">
        <ele>140.738633</ele>
        <time>2026-03-17T22:25:52.056Z</time>
      </trkpt>
      <trkpt lat="50.596647" lon="5.453987">
        <ele>140.587515</ele>
        <time>2026-03-17T22:26:00.265Z</time>
      </trkpt>
      <trkpt lat="50.596590" lon="5.453823">
        <ele>140.301904</ele>
        <time>2026-03-17T22:26:13.830Z</time>
      </trkpt>
      <trkpt lat="50.596509" lon="5.453714">
        <ele>140.045550</ele>
        <time>2026-03-17T22:26:26.095Z</time>
      </trkpt>
      <trkpt lat="50.596168" lon="5.453247">
        <ele>138.958230</ele>
        <time>2026-03-17T22:27:16.306Z</time>
      </trkpt>
      <trkpt lat="50.596136" lon="5.453129">
        <ele>138.762218</ele>
        <time>2026-03-17T22:27:24.980Z</time>
      </trkpt>
      <trkpt lat="50.596129" lon="5.452886">
        <ele>138.390638</ele>
        <time>2026-03-17T22:27:41.184Z</time>
      </trkpt>
      <trkpt lat="50.596158" lon="5.452712">
        <ele>138.115834</ele>
        <time>2026-03-17T22:27:53.187Z</time>
      </trkpt>
      <trkpt lat="50.596219" lon="5.452408">
        <ele>137.628808</ele>
        <time>2026-03-17T22:28:14.715Z</time>
      </trkpt>
      <trkpt lat="50.596202" lon="5.452293">
        <ele>137.448438</ele>
        <time>2026-03-17T22:28:22.554Z</time>
      </trkpt>
      <trkpt lat="50.596173" lon="5.452223">
        <ele>137.320751</ele>
        <time>2026-03-17T22:28:28.056Z</time>
      </trkpt>
      <trkpt lat="50.596130" lon="5.452119">
        <ele>137.131157</ele>
        <time>2026-03-17T22:28:36.020Z</time>
      </trkpt>
      <trkpt lat="50.595988" lon="5.451369">
        <ele>137.422615</ele>
        <time>2026-03-17T22:29:30.271Z</time>
      </trkpt>
      <trkpt lat="50.595844" lon="5.451030">
        <ele>139.111692</ele>
        <time>2026-03-17T22:30:01.228Z</time>
      </trkpt>
      <trkpt lat="50.595806" lon="5.450884">
        <ele>139.765114</ele>
        <time>2026-03-17T22:30:13.490Z</time>
      </trkpt>
      <trkpt lat="50.595615" lon="5.449823">
        <ele>144.331909</ele>
        <time>2026-03-17T22:31:42.014Z</time>
      </trkpt>
      <trkpt lat="50.595465" lon="5.449223">
        <ele>147.002223</ele>
        <time>2026-03-17T22:32:34.132Z</time>
      </trkpt>
      <trkpt lat="50.595429" lon="5.448843">
        <ele>148.658797</ele>
        <time>2026-03-17T22:33:05.230Z</time>
      </trkpt>
      <trkpt lat="50.595455" lon="5.448235">
        <ele>151.498192</ele>
        <time>2026-03-17T22:33:55.569Z</time>
      </trkpt>
      <trkpt lat="50.595442" lon="5.447816">
        <ele>153.452851</ele>
        <time>2026-03-17T22:34:29.822Z</time>
      </trkpt>
      <trkpt lat="50.595400" lon="5.447567">
        <ele>154.653326</ele>
        <time>2026-03-17T22:34:50.706Z</time>
      </trkpt>
      <trkpt lat="50.595413" lon="5.447166">
        <ele>156.524221</ele>
        <time>2026-03-17T22:35:22.913Z</time>
      </trkpt>
      <trkpt lat="50.595438" lon="5.447067">
        <ele>157.020671</ele>
        <time>2026-03-17T22:35:31.386Z</time>
      </trkpt>
      <trkpt lat="50.595550" lon="5.446947">
        <ele>158.014898</ele>
        <time>2026-03-17T22:35:48.299Z</time>
      </trkpt>
      <trkpt lat="50.595569" lon="5.446867">
        <ele>158.412892</ele>
        <time>2026-03-17T22:35:55.092Z</time>
      </trkpt>
      <trkpt lat="50.595612" lon="5.446852">
        <ele>158.736166</ele>
        <time>2026-03-17T22:36:00.518Z</time>
      </trkpt>
      <trkpt lat="50.596592" lon="5.446996">
        <ele>162.550801</ele>
        <time>2026-03-17T22:37:56.465Z</time>
      </trkpt>
      <trkpt lat="50.596662" lon="5.446974">
        <ele>162.693707</ele>
        <time>2026-03-17T22:38:04.251Z</time>
      </trkpt>
      <trkpt lat="50.596681" lon="5.446399">
        <ele>163.425439</ele>
        <time>2026-03-17T22:38:42.969Z</time>
      </trkpt>
      <trkpt lat="50.596644" lon="5.446022">
        <ele>163.910245</ele>
        <time>2026-03-17T22:39:07.743Z</time>
      </trkpt>
      <trkpt lat="50.596476" lon="5.445221">
        <ele>164.686117</ele>
        <time>2026-03-17T22:40:02.404Z</time>
      </trkpt>
      <trkpt lat="50.596461" lon="5.445055">
        <ele>164.322496</ele>
        <time>2026-03-17T22:40:13.503Z</time>
      </trkpt>
      <trkpt lat="50.596589" lon="5.445019">
        <ele>163.878288</ele>
        <time>2026-03-17T22:40:27.097Z</time>
      </trkpt>
      <trkpt lat="50.596630" lon="5.444946">
        <ele>163.666908</ele>
        <time>2026-03-17T22:40:33.607Z</time>
      </trkpt>
      <trkpt lat="50.596868" lon="5.444932">
        <ele>162.853250</ele>
        <time>2026-03-17T22:40:58.901Z</time>
      </trkpt>
      <trkpt lat="50.596864" lon="5.444705">
        <ele>162.360787</ele>
        <time>2026-03-17T22:41:14.314Z</time>
      </trkpt>
      <trkpt lat="50.596866" lon="5.444396">
        <ele>161.690652</ele>
        <time>2026-03-17T22:41:35.267Z</time>
      </trkpt>
      <trkpt lat="50.596870" lon="5.444057">
        <ele>160.955367</ele>
        <time>2026-03-17T22:41:58.462Z</time>
      </trkpt>
      <trkpt lat="50.597357" lon="5.444001">
        <ele>159.287178</ele>
        <time>2026-03-17T22:42:51.794Z</time>
      </trkpt>
      <trkpt lat="50.597694" lon="5.443901">
        <ele>157.696121</ele>
        <time>2026-03-17T22:43:29.711Z</time>
      </trkpt>
      <trkpt lat="50.597757" lon="5.443816">
        <ele>157.218652</ele>
        <time>2026-03-17T22:43:38.905Z</time>
      </trkpt>
      <trkpt lat="50.597624" lon="5.443664">
        <ele>156.272821</ele>
        <time>2026-03-17T22:43:57.154Z</time>
      </trkpt>
      <trkpt lat="50.597256" lon="5.443370">
        <ele>153.897663</ele>
        <time>2026-03-17T22:44:43.355Z</time>
      </trkpt>
      <trkpt lat="50.597016" lon="5.443061">
        <ele>152.113451</ele>
        <time>2026-03-17T22:45:17.965Z</time>
      </trkpt>
      <trkpt lat="50.596755" lon="5.442297">
        <ele>148.943206</ele>
        <time>2026-03-17T22:46:19.850Z</time>
      </trkpt>
      <trkpt lat="50.596637" lon="5.441966">
        <ele>147.561157</ele>
        <time>2026-03-17T22:46:46.919Z</time>
      </trkpt>
      <trkpt lat="50.596516" lon="5.441713">
        <ele>146.410895</ele>
        <time>2026-03-17T22:47:09.749Z</time>
      </trkpt>
      <trkpt lat="50.596378" lon="5.441582">
        <ele>145.489231</ele>
        <time>2026-03-17T22:47:28.141Z</time>
      </trkpt>
      <trkpt lat="50.595800" lon="5.441556">
        <ele>142.181469</ele>
        <time>2026-03-17T22:48:33.861Z</time>
      </trkpt>
      <trkpt lat="50.595709" lon="5.441480">
        <ele>141.592278</ele>
        <time>2026-03-17T22:48:45.545Z</time>
      </trkpt>
      <trkpt lat="50.595659" lon="5.441347">
        <ele>141.030978</ele>
        <time>2026-03-17T22:48:56.705Z</time>
      </trkpt>
      <trkpt lat="50.595584" lon="5.441156">
        <ele>140.215433</ele>
        <time>2026-03-17T22:49:12.901Z</time>
      </trkpt>
      <trkpt lat="50.595456" lon="5.441061">
        <ele>139.406022</ele>
        <time>2026-03-17T22:49:29.052Z</time>
      </trkpt>
      <trkpt lat="50.595230" lon="5.441043">
        <ele>138.111551</ele>
        <time>2026-03-17T22:49:53.877Z</time>
      </trkpt>
      <trkpt lat="50.594829" lon="5.441010">
        <ele>139.489657</ele>
        <time>2026-03-17T22:50:35.483Z</time>
      </trkpt>
      <trkpt lat="50.594755" lon="5.440988">
        <ele>139.756035</ele>
        <time>2026-03-17T22:50:43.189Z</time>
      </trkpt>
      <trkpt lat="50.594588" lon="5.440957">
        <ele>140.350844</ele>
        <time>2026-03-17T22:51:01.167Z</time>
      </trkpt>
      <trkpt lat="50.594396" lon="5.440982">
        <ele>141.032313</ele>
        <time>2026-03-17T22:51:22.703Z</time>
      </trkpt>
      <trkpt lat="50.594465" lon="5.440491">
        <ele>142.161530</ele>
        <time>2026-03-17T22:52:00.558Z</time>
      </trkpt>
      <trkpt lat="50.594435" lon="5.440054">
        <ele>143.148521</ele>
        <time>2026-03-17T22:52:35.242Z</time>
      </trkpt>
      <trkpt lat="50.594505" lon="5.439660">
        <ele>144.067231</ele>
        <time>2026-03-17T22:53:08.766Z</time>
      </trkpt>
      <trkpt lat="50.594582" lon="5.439459">
        <ele>144.765030</ele>
        <time>2026-03-17T22:53:28.386Z</time>
      </trkpt>
      <trkpt lat="50.594993" lon="5.439342">
        <ele>147.960979</ele>
        <time>2026-03-17T22:54:24.290Z</time>
      </trkpt>
      <trkpt lat="50.595062" lon="5.439179">
        <ele>148.912656</ele>
        <time>2026-03-17T22:54:40.488Z</time>
      </trkpt>
      <trkpt lat="50.595546" lon="5.439272">
        <ele>152.643717</ele>
        <time>2026-03-17T22:55:42.142Z</time>
      </trkpt>
      <trkpt lat="50.595921" lon="5.439257">
        <ele>155.514177</ele>
        <time>2026-03-17T22:56:28.615Z</time>
      </trkpt>
      <trkpt lat="50.596224" lon="5.439117">
        <ele>157.930431</ele>
        <time>2026-03-17T22:57:07.819Z</time>
      </trkpt>
      <trkpt lat="50.596153" lon="5.438597">
        <ele>158.877184</ele>
        <time>2026-03-17T22:57:48.505Z</time>
      </trkpt>
      <trkpt lat="50.596219" lon="5.438458">
        <ele>159.121059</ele>
        <time>2026-03-17T22:58:01.489Z</time>
      </trkpt>
      <trkpt lat="50.596783" lon="5.438196">
        <ele>160.422486</ele>
        <time>2026-03-17T22:59:06.379Z</time>
      </trkpt>
      <trkpt lat="50.596834" lon="5.438358">
        <ele>160.676537</ele>
        <time>2026-03-17T22:59:18.233Z</time>
      </trkpt>
      <trkpt lat="50.597009" lon="5.438733">
        <ele>161.330438</ele>
        <time>2026-03-17T22:59:47.894Z</time>
      </trkpt>
      <trkpt lat="50.597083" lon="5.438831">
        <ele>161.544403</ele>
        <time>2026-03-17T22:59:57.817Z</time>
      </trkpt>
      <trkpt lat="50.597224" lon="5.439158">
        <ele>162.099780</ele>
        <time>2026-03-17T23:00:23.591Z</time>
      </trkpt>
      <trkpt lat="50.597369" lon="5.439642">
        <ele>162.315258</ele>
        <time>2026-03-17T23:00:58.774Z</time>
      </trkpt>
      <trkpt lat="50.597546" lon="5.440365">
        <ele>162.518717</ele>
        <time>2026-03-17T23:01:49.179Z</time>
      </trkpt>
      <trkpt lat="50.597593" lon="5.440462">
        <ele>162.550757</ele>
        <time>2026-03-17T23:01:56.951Z</time>
      </trkpt>
      <trkpt lat="50.597792" lon="5.440477">
        <ele>162.633164</ele>
        <time>2026-03-17T23:02:17.429Z</time>
      </trkpt>
      <trkpt lat="50.597687" lon="5.438878">
        <ele>163.273751</ele>
        <time>2026-03-17T23:04:07.315Z</time>
      </trkpt>
      <trkpt lat="50.597624" lon="5.437816">
        <ele>164.066788</ele>
        <time>2026-03-17T23:05:18.961Z</time>
      </trkpt>
      <trkpt lat="50.597624" lon="5.437810">
        <ele>164.071249</ele>
        <time>2026-03-17T23:05:19.364Z</time>
      </trkpt>
      <trkpt lat="50.597614" lon="5.436761">
        <ele>164.851269</ele>
        <time>2026-03-17T23:06:26.066Z</time>
      </trkpt>
      <trkpt lat="50.597622" lon="5.435449">
        <ele>166.465534</ele>
        <time>2026-03-17T23:07:52.508Z</time>
      </trkpt>
      <trkpt lat="50.597621" lon="5.435287">
        <ele>166.684112</ele>
        <time>2026-03-17T23:08:03.390Z</time>
      </trkpt>
      <trkpt lat="50.597659" lon="5.435187">
        <ele>166.841359</ele>
        <time>2026-03-17T23:08:11.301Z</time>
      </trkpt>
      <trkpt lat="50.597843" lon="5.434954">
        <ele>167.343130</ele>
        <time>2026-03-17T23:08:36.533Z</time>
      </trkpt>
      <trkpt lat="50.598284" lon="5.434874">
        <ele>168.286668</ele>
        <time>2026-03-17T23:09:25.552Z</time>
      </trkpt>
      <trkpt lat="50.598354" lon="5.434748">
        <ele>168.512577</ele>
        <time>2026-03-17T23:09:37.549Z</time>
      </trkpt>
      <trkpt lat="50.598507" lon="5.435323">
        <ele>169.780716</ele>
        <time>2026-03-17T23:10:23.059Z</time>
      </trkpt>
      <trkpt lat="50.598971" lon="5.435251">
        <ele>171.638705</ele>
        <time>2026-03-17T23:11:16.418Z</time>
      </trkpt>
      <trkpt lat="50.599465" lon="5.435209">
        <ele>173.610160</ele>
        <time>2026-03-17T23:12:12.376Z</time>
      </trkpt>
      <trkpt lat="50.599694" lon="5.435311">
        <ele>174.558496</ele>
        <time>2026-03-17T23:12:39.649Z</time>
      </trkpt>
      <trkpt lat="50.599830" lon="5.435401">
        <ele>175.146326</ele>
        <time>2026-03-17T23:12:56.633Z</time>
      </trkpt>
      <trkpt lat="50.600026" lon="5.435650">
        <ele>176.162468</ele>
        <time>2026-03-17T23:13:25.511Z</time>
      </trkpt>
      <trkpt lat="50.600258" lon="5.436135">
        <ele>177.867295</ele>
        <time>2026-03-17T23:14:09.767Z</time>
      </trkpt>
      <trkpt lat="50.600359" lon="5.436271">
        <ele>178.454903</ele>
        <time>2026-03-17T23:14:25.057Z</time>
      </trkpt>
      <trkpt lat="50.600562" lon="5.436418">
        <ele>179.442996</ele>
        <time>2026-03-17T23:14:50.762Z</time>
      </trkpt>
      <trkpt lat="50.600776" lon="5.436295">
        <ele>180.450459</ele>
        <time>2026-03-17T23:15:16.926Z</time>
      </trkpt>
      <trkpt lat="50.601443" lon="5.435729">
        <ele>183.801038</ele>
        <time>2026-03-17T23:16:45.534Z</time>
      </trkpt>
      <trkpt lat="50.602011" lon="5.435443">
        <ele>185.619393</ele>
        <time>2026-03-17T23:17:54.125Z</time>
      </trkpt>
      <trkpt lat="50.602348" lon="5.435389">
        <ele>186.616825</ele>
        <time>2026-03-17T23:18:32.485Z</time>
      </trkpt>
      <trkpt lat="50.603581" lon="5.435414">
        <ele>189.088094</ele>
        <time>2026-03-17T23:20:44.187Z</time>
      </trkpt>
      <trkpt lat="50.603606" lon="5.435469">
        <ele>189.062349</ele>
        <time>2026-03-17T23:20:48.503Z</time>
      </trkpt>
      <trkpt lat="50.604168" lon="5.434941">
        <ele>188.670020</ele>
        <time>2026-03-17T23:21:54.651Z</time>
      </trkpt>
      <trkpt lat="50.604894" lon="5.434099">
        <ele>187.858820</ele>
        <time>2026-03-17T23:23:28.411Z</time>
      </trkpt>
      <trkpt lat="50.605117" lon="5.433928">
        <ele>187.182752</ele>
        <time>2026-03-17T23:23:54.584Z</time>
      </trkpt>
      <trkpt lat="50.607043" lon="5.432859">
        <ele>180.999238</ele>
        <time>2026-03-17T23:27:31.091Z</time>
      </trkpt>
      <trkpt lat="50.608064" lon="5.431827">
        <ele>176.356049</ele>
        <time>2026-03-17T23:29:41.627Z</time>
      </trkpt>
      <trkpt lat="50.608184" lon="5.431670">
        <ele>175.176564</ele>
        <time>2026-03-17T23:29:58.921Z</time>
      </trkpt>
      <trkpt lat="50.608798" lon="5.431040">
        <ele>169.635802</ele>
        <time>2026-03-17T23:31:22.472Z</time>
      </trkpt>
      <trkpt lat="50.609880" lon="5.430393">
        <ele>160.578828</ele>
        <time>2026-03-17T23:33:39.667Z</time>
      </trkpt>
      <trkpt lat="50.610101" lon="5.430301">
        <ele>158.601231</ele>
        <time>2026-03-17T23:34:06.776Z</time>
      </trkpt>
      <trkpt lat="50.612023" lon="5.430353">
        <ele>143.755989</ele>
        <time>2026-03-17T23:37:51.277Z</time>
      </trkpt>
      <trkpt lat="50.612323" lon="5.430486">
        <ele>141.939480</ele>
        <time>2026-03-17T23:38:26.363Z</time>
      </trkpt>
      <trkpt lat="50.612676" lon="5.430714">
        <ele>139.715813</ele>
        <time>2026-03-17T23:39:08.435Z</time>
      </trkpt>
      <trkpt lat="50.612776" lon="5.430724">
        <ele>139.131764</ele>
        <time>2026-03-17T23:39:19.295Z</time>
      </trkpt>
      <trkpt lat="50.612734" lon="5.430645">
        <ele>138.750568</ele>
        <time>2026-03-17T23:39:26.353Z</time>
      </trkpt>
      <trkpt lat="50.612694" lon="5.430392">
        <ele>137.786190</ele>
        <time>2026-03-17T23:39:43.989Z</time>
      </trkpt>
      <trkpt lat="50.612695" lon="5.429949">
        <ele>136.566105</ele>
        <time>2026-03-17T23:40:13.802Z</time>
      </trkpt>
      <trkpt lat="50.612650" lon="5.429593">
        <ele>135.915857</ele>
        <time>2026-03-17T23:40:38.036Z</time>
      </trkpt>
      <trkpt lat="50.612487" lon="5.428882">
        <ele>134.561636</ele>
        <time>2026-03-17T23:41:27.880Z</time>
      </trkpt>
      <trkpt lat="50.612403" lon="5.428646">
        <ele>134.076913</ele>
        <time>2026-03-17T23:41:45.686Z</time>
      </trkpt>
      <trkpt lat="50.612382" lon="5.428598">
        <ele>133.972472</ele>
        <time>2026-03-17T23:41:49.563Z</time>
      </trkpt>
      <trkpt lat="50.612026" lon="5.428027">
        <ele>132.538513</ele>
        <time>2026-03-17T23:42:43.263Z</time>
      </trkpt>
      <trkpt lat="50.611736" lon="5.427475">
        <ele>131.400494</ele>
        <time>2026-03-17T23:43:32.683Z</time>
      </trkpt>
      <trkpt lat="50.611419" lon="5.426602">
        <ele>130.017589</ele>
        <time>2026-03-17T23:44:41.695Z</time>
      </trkpt>
      <trkpt lat="50.611481" lon="5.426205">
        <ele>129.455464</ele>
        <time>2026-03-17T23:45:08.959Z</time>
      </trkpt>
      <trkpt lat="50.611598" lon="5.425737">
        <ele>128.763875</ele>
        <time>2026-03-17T23:45:41.973Z</time>
      </trkpt>
      <trkpt lat="50.611428" lon="5.425701">
        <ele>128.392234</ele>
        <time>2026-03-17T23:45:59.374Z</time>
      </trkpt>
      <trkpt lat="50.611421" lon="5.425697">
        <ele>128.376101</ele>
        <time>2026-03-17T23:46:00.103Z</time>
      </trkpt>
      <trkpt lat="50.611203" lon="5.425576">
        <ele>128.106833</ele>
        <time>2026-03-17T23:46:23.476Z</time>
      </trkpt>
      <trkpt lat="50.611107" lon="5.425375">
        <ele>128.494104</ele>
        <time>2026-03-17T23:46:40.067Z</time>
      </trkpt>
      <trkpt lat="50.610880" lon="5.424537">
        <ele>129.896761</ele>
        <time>2026-03-17T23:47:43.715Z</time>
      </trkpt>
      <trkpt lat="50.610687" lon="5.424175">
        <ele>130.624610</ele>
        <time>2026-03-17T23:48:17.422Z</time>
      </trkpt>
      <trkpt lat="50.610369" lon="5.423708">
        <ele>131.679102</ele>
        <time>2026-03-17T23:49:06.226Z</time>
      </trkpt>
      <trkpt lat="50.609028" lon="5.422158">
        <ele>134.302557</ele>
        <time>2026-03-17T23:52:06.894Z</time>
      </trkpt>
      <trkpt lat="50.608905" lon="5.422112">
        <ele>134.480665</ele>
        <time>2026-03-17T23:52:19.693Z</time>
      </trkpt>
      <trkpt lat="50.608849" lon="5.421986">
        <ele>134.618202</ele>
        <time>2026-03-17T23:52:29.530Z</time>
      </trkpt>
      <trkpt lat="50.608454" lon="5.421551">
        <ele>133.295176</ele>
        <time>2026-03-17T23:53:19.255Z</time>
      </trkpt>
      <trkpt lat="50.608210" lon="5.421336">
        <ele>131.789905</ele>
        <time>2026-03-17T23:53:49.228Z</time>
      </trkpt>
      <trkpt lat="50.608919" lon="5.421214">
        <ele>127.949622</ele>
        <time>2026-03-17T23:55:10.119Z</time>
      </trkpt>
      <trkpt lat="50.609185" lon="5.420995">
        <ele>126.333642</ele>
        <time>2026-03-17T23:55:45.541Z</time>
      </trkpt>
      <trkpt lat="50.609304" lon="5.420942">
        <ele>125.667789</ele>
        <time>2026-03-17T23:56:00.041Z</time>
      </trkpt>
      <trkpt lat="50.609800" lon="5.420869">
        <ele>124.715853</ele>
        <time>2026-03-17T23:56:57.638Z</time>
      </trkpt>
      <trkpt lat="50.609985" lon="5.420748">
        <ele>124.481122</ele>
        <time>2026-03-17T23:57:20.078Z</time>
      </trkpt>
      <trkpt lat="50.610068" lon="5.420447">
        <ele>124.237058</ele>
        <time>2026-03-17T23:57:42.589Z</time>
      </trkpt>
      <trkpt lat="50.610138" lon="5.420432">
        <ele>124.154271</ele>
        <time>2026-03-17T23:57:49.924Z</time>
      </trkpt>
      <trkpt lat="50.610251" lon="5.420068">
        <ele>123.852921</ele>
        <time>2026-03-17T23:58:16.257Z</time>
      </trkpt>
      <trkpt lat="50.610286" lon="5.419745">
        <ele>123.609240</ele>
        <time>2026-03-17T23:58:38.169Z</time>
      </trkpt>
      <trkpt lat="50.610295" lon="5.419614">
        <ele>123.511250</ele>
        <time>2026-03-17T23:58:47.420Z</time>
      </trkpt>
      <trkpt lat="50.610254" lon="5.419253">
        <ele>123.238521</ele>
        <time>2026-03-17T23:59:14.622Z</time>
      </trkpt>
      <trkpt lat="50.610253" lon="5.418994">
        <ele>123.437324</ele>
        <time>2026-03-17T23:59:35.134Z</time>
      </trkpt>
      <trkpt lat="50.610494" lon="5.418208">
        <ele>128.627373</ele>
        <time>2026-03-18T00:00:48.181Z</time>
      </trkpt>
      <trkpt lat="50.610425" lon="5.417845">
        <ele>130.880321</ele>
        <time>2026-03-18T00:01:21.090Z</time>
      </trkpt>
      <trkpt lat="50.610251" lon="5.417248">
        <ele>134.786243</ele>
        <time>2026-03-18T00:02:19.831Z</time>
      </trkpt>
      <trkpt lat="50.610121" lon="5.416850">
        <ele>137.447613</ele>
        <time>2026-03-18T00:02:59.517Z</time>
      </trkpt>
      <trkpt lat="50.609941" lon="5.416426">
        <ele>140.047494</ele>
        <time>2026-03-18T00:03:42.581Z</time>
      </trkpt>
      <trkpt lat="50.609814" lon="5.415951">
        <ele>140.652626</ele>
        <time>2026-03-18T00:04:23.965Z</time>
      </trkpt>
      <trkpt lat="50.609602" lon="5.415378">
        <ele>141.431321</ele>
        <time>2026-03-18T00:05:12.313Z</time>
      </trkpt>
      <trkpt lat="50.609547" lon="5.415388">
        <ele>141.533747</ele>
        <time>2026-03-18T00:05:18.065Z</time>
      </trkpt>
      <trkpt lat="50.609143" lon="5.415109">
        <ele>142.349779</ele>
        <time>2026-03-18T00:06:02.802Z</time>
      </trkpt>
      <trkpt lat="50.608831" lon="5.414970">
        <ele>142.949610</ele>
        <time>2026-03-18T00:06:37.147Z</time>
      </trkpt>
      <trkpt lat="50.608740" lon="5.415069">
        <ele>143.154187</ele>
        <time>2026-03-18T00:06:49.134Z</time>
      </trkpt>
      <trkpt lat="50.608640" lon="5.415301">
        <ele>142.933392</ele>
        <time>2026-03-18T00:07:08.712Z</time>
      </trkpt>
      <trkpt lat="50.608549" lon="5.415426">
        <ele>142.585343</ele>
        <time>2026-03-18T00:07:22.047Z</time>
      </trkpt>
      <trkpt lat="50.608458" lon="5.415379">
        <ele>142.309250</ele>
        <time>2026-03-18T00:07:32.682Z</time>
      </trkpt>
      <trkpt lat="50.608004" lon="5.414781">
        <ele>140.603267</ele>
        <time>2026-03-18T00:08:37.692Z</time>
      </trkpt>
      <trkpt lat="50.607744" lon="5.414482">
        <ele>139.675268</ele>
        <time>2026-03-18T00:09:12.093Z</time>
      </trkpt>
      <trkpt lat="50.607393" lon="5.414173">
        <ele>138.516086</ele>
        <time>2026-03-18T00:09:52.871Z</time>
      </trkpt>
      <trkpt lat="50.606916" lon="5.413490">
        <ele>138.654035</ele>
        <time>2026-03-18T00:10:57.375Z</time>
      </trkpt>
      <trkpt lat="50.606791" lon="5.413212">
        <ele>138.903919</ele>
        <time>2026-03-18T00:11:19.274Z</time>
      </trkpt>
      <trkpt lat="50.606511" lon="5.412745">
        <ele>139.375119</ele>
        <time>2026-03-18T00:12:01.025Z</time>
      </trkpt>
      <trkpt lat="50.606485" lon="5.412641">
        <ele>139.457102</ele>
        <time>2026-03-18T00:12:08.406Z</time>
      </trkpt>
      <trkpt lat="50.606342" lon="5.412595">
        <ele>139.625773</ele>
        <time>2026-03-18T00:12:23.781Z</time>
      </trkpt>
      <trkpt lat="50.606339" lon="5.412456">
        <ele>139.727781</ele>
        <time>2026-03-18T00:12:33.253Z</time>
      </trkpt>
      <trkpt lat="50.606279" lon="5.412105">
        <ele>139.994396</ele>
        <time>2026-03-18T00:12:58.374Z</time>
      </trkpt>
      <trkpt lat="50.606220" lon="5.411895">
        <ele>140.169012</ele>
        <time>2026-03-18T00:13:14.383Z</time>
      </trkpt>
      <trkpt lat="50.606170" lon="5.411461">
        <ele>141.979911</ele>
        <time>2026-03-18T00:13:45.877Z</time>
      </trkpt>
      <trkpt lat="50.606501" lon="5.410719">
        <ele>145.703416</ele>
        <time>2026-03-18T00:14:54.020Z</time>
      </trkpt>
      <trkpt lat="50.606931" lon="5.410273">
        <ele>149.033605</ele>
        <time>2026-03-18T00:15:58.835Z</time>
      </trkpt>
      <trkpt lat="50.607281" lon="5.410004">
        <ele>151.552703</ele>
        <time>2026-03-18T00:16:49.617Z</time>
      </trkpt>
      <trkpt lat="50.607967" lon="5.409562">
        <ele>158.294142</ele>
        <time>2026-03-18T00:18:28.946Z</time>
      </trkpt>
      <trkpt lat="50.608855" lon="5.409460">
        <ele>166.518398</ele>
        <time>2026-03-18T00:20:26.780Z</time>
      </trkpt>
      <trkpt lat="50.608914" lon="5.409485">
        <ele>167.082743</ele>
        <time>2026-03-18T00:20:34.597Z</time>
      </trkpt>
      <trkpt lat="50.608969" lon="5.409583">
        <ele>167.849630</ele>
        <time>2026-03-18T00:20:45.389Z</time>
      </trkpt>
      <trkpt lat="50.609122" lon="5.410031">
        <ele>169.703216</ele>
        <time>2026-03-18T00:21:26.489Z</time>
      </trkpt>
      <trkpt lat="50.609245" lon="5.410113">
        <ele>170.361729</ele>
        <time>2026-03-18T00:21:43.050Z</time>
      </trkpt>
      <trkpt lat="50.609560" lon="5.410093">
        <ele>171.916145</ele>
        <time>2026-03-18T00:22:21.168Z</time>
      </trkpt>
      <trkpt lat="50.610433" lon="5.410081">
        <ele>176.220769</ele>
        <time>2026-03-18T00:24:00.168Z</time>
      </trkpt>
      <trkpt lat="50.610853" lon="5.410185">
        <ele>177.536205</ele>
        <time>2026-03-18T00:24:46.471Z</time>
      </trkpt>
      <trkpt lat="50.612220" lon="5.410802">
        <ele>179.271349</ele>
        <time>2026-03-18T00:27:13.257Z</time>
      </trkpt>
      <trkpt lat="50.612810" lon="5.409790">
        <ele>179.858835</ele>
        <time>2026-03-18T00:28:41.709Z</time>
      </trkpt>
      <trkpt lat="50.612942" lon="5.409597">
        <ele>179.956961</ele>
        <time>2026-03-18T00:29:00.068Z</time>
      </trkpt>
      <trkpt lat="50.613128" lon="5.409391">
        <ele>180.080851</ele>
        <time>2026-03-18T00:29:23.339Z</time>
      </trkpt>
      <trkpt lat="50.613441" lon="5.409161">
        <ele>180.269053</ele>
        <time>2026-03-18T00:29:58.929Z</time>
      </trkpt>
      <trkpt lat="50.614210" lon="5.408764">
        <ele>180.245290</ele>
        <time>2026-03-18T00:31:21.866Z</time>
      </trkpt>
      <trkpt lat="50.614403" lon="5.408607">
        <ele>180.148498</ele>
        <time>2026-03-18T00:31:43.622Z</time>
      </trkpt>
      <trkpt lat="50.614951" lon="5.408020">
        <ele>179.853214</ele>
        <time>2026-03-18T00:32:50.863Z</time>
      </trkpt>
      <trkpt lat="50.615208" lon="5.407691">
        <ele>179.705660</ele>
        <time>2026-03-18T00:33:24.909Z</time>
      </trkpt>
      <trkpt lat="50.615277" lon="5.407659">
        <ele>179.673607</ele>
        <time>2026-03-18T00:33:32.277Z</time>
      </trkpt>
      <trkpt lat="50.615897" lon="5.407003">
        <ele>178.477662</ele>
        <time>2026-03-18T00:34:49.530Z</time>
      </trkpt>
      <trkpt lat="50.616088" lon="5.406853">
        <ele>178.119462</ele>
        <time>2026-03-18T00:35:11.715Z</time>
      </trkpt>
      <trkpt lat="50.615857" lon="5.405979">
        <ele>177.111075</ele>
        <time>2026-03-18T00:36:14.020Z</time>
      </trkpt>
      <trkpt lat="50.615840" lon="5.405847">
        <ele>176.967620</ele>
        <time>2026-03-18T00:36:22.861Z</time>
      </trkpt>
      <trkpt lat="50.615777" lon="5.405764">
        <ele>176.829790</ele>
        <time>2026-03-18T00:36:31.396Z</time>
      </trkpt>
      <trkpt lat="50.615662" lon="5.405335">
        <ele>176.256042</ele>
        <time>2026-03-18T00:37:02.114Z</time>
      </trkpt>
      <trkpt lat="50.615471" lon="5.404760">
        <ele>175.385641</ele>
        <time>2026-03-18T00:37:45.177Z</time>
      </trkpt>
      <trkpt lat="50.614863" lon="5.403536">
        <ele>173.300968</ele>
        <time>2026-03-18T00:39:28.427Z</time>
      </trkpt>
      <trkpt lat="50.614529" lon="5.402601">
        <ele>171.733290</ele>
        <time>2026-03-18T00:40:39.556Z</time>
      </trkpt>
      <trkpt lat="50.614415" lon="5.402386">
        <ele>171.307693</ele>
        <time>2026-03-18T00:40:58.134Z</time>
      </trkpt>
      <trkpt lat="50.613736" lon="5.401577">
        <ele>169.269997</ele>
        <time>2026-03-18T00:42:27.169Z</time>
      </trkpt>
      <trkpt lat="50.613030" lon="5.400288">
        <ele>164.386206</ele>
        <time>2026-03-18T00:44:22.199Z</time>
      </trkpt>
      <trkpt lat="50.612822" lon="5.400025">
        <ele>162.952105</ele>
        <time>2026-03-18T00:44:51.579Z</time>
      </trkpt>
      <trkpt lat="50.612606" lon="5.399349">
        <ele>160.369325</ele>
        <time>2026-03-18T00:45:45.845Z</time>
      </trkpt>
      <trkpt lat="50.612487" lon="5.399132">
        <ele>159.390609</ele>
        <time>2026-03-18T00:46:06.844Z</time>
      </trkpt>
      <trkpt lat="50.611514" lon="5.397919">
        <ele>146.467159</ele>
        <time>2026-03-18T00:48:35.547Z</time>
      </trkpt>
      <trkpt lat="50.611226" lon="5.397687">
        <ele>142.955336</ele>
        <time>2026-03-18T00:49:15.602Z</time>
      </trkpt>
      <trkpt lat="50.611121" lon="5.397639">
        <ele>141.768301</ele>
        <time>2026-03-18T00:49:29.203Z</time>
      </trkpt>
      <trkpt lat="50.610465" lon="5.397070">
        <ele>132.435182</ele>
        <time>2026-03-18T00:51:04.066Z</time>
      </trkpt>
      <trkpt lat="50.610090" lon="5.396571">
        <ele>125.978953</ele>
        <time>2026-03-18T00:52:07.702Z</time>
      </trkpt>
      <trkpt lat="50.609846" lon="5.396230">
        <ele>121.688946</ele>
        <time>2026-03-18T00:52:48.837Z</time>
      </trkpt>
      <trkpt lat="50.609649" lon="5.395954">
        <ele>118.221492</ele>
        <time>2026-03-18T00:53:21.555Z</time>
      </trkpt>
      <trkpt lat="50.609524" lon="5.395974">
        <ele>116.568776</ele>
        <time>2026-03-18T00:53:37.063Z</time>
      </trkpt>
      <trkpt lat="50.609370" lon="5.396359">
        <ele>114.219619</ele>
        <time>2026-03-18T00:54:12.034Z</time>
      </trkpt>
      <trkpt lat="50.609152" lon="5.396854">
        <ele>111.708103</ele>
        <time>2026-03-18T00:54:57.166Z</time>
      </trkpt>
      <trkpt lat="50.608904" lon="5.397122">
        <ele>109.732884</ele>
        <time>2026-03-18T00:55:31.420Z</time>
      </trkpt>
      <trkpt lat="50.608647" lon="5.397739">
        <ele>106.656478</ele>
        <time>2026-03-18T00:56:22.444Z</time>
      </trkpt>
      <trkpt lat="50.608605" lon="5.397795">
        <ele>106.295098</ele>
        <time>2026-03-18T00:56:28.321Z</time>
      </trkpt>
      <trkpt lat="50.607433" lon="5.398557">
        <ele>102.130540</ele>
        <time>2026-03-18T00:58:43.323Z</time>
      </trkpt>
      <trkpt lat="50.607296" lon="5.398586">
        <ele>101.864994</ele>
        <time>2026-03-18T00:58:57.652Z</time>
      </trkpt>
      <trkpt lat="50.607181" lon="5.398532">
        <ele>101.634474</ele>
        <time>2026-03-18T00:59:09.871Z</time>
      </trkpt>
      <trkpt lat="50.606942" lon="5.399237">
        <ele>100.660027</ele>
        <time>2026-03-18T01:00:01.163Z</time>
      </trkpt>
      <trkpt lat="50.606875" lon="5.399422">
        <ele>100.400342</ele>
        <time>2026-03-18T01:00:14.800Z</time>
      </trkpt>
      <trkpt lat="50.606553" lon="5.400270">
        <ele>99.812229</ele>
        <time>2026-03-18T01:01:18.151Z</time>
      </trkpt>
      <trkpt lat="50.606280" lon="5.400896">
        <ele>99.361837</ele>
        <time>2026-03-18T01:02:06.792Z</time>
      </trkpt>
      <trkpt lat="50.606116" lon="5.401162">
        <ele>99.141929</ele>
        <time>2026-03-18T01:02:30.666Z</time>
      </trkpt>
      <trkpt lat="50.605673" lon="5.401669">
        <ele>98.645825</ele>
        <time>2026-03-18T01:03:27.719Z</time>
      </trkpt>
      <trkpt lat="50.604906" lon="5.402546">
        <ele>97.921019</ele>
        <time>2026-03-18T01:05:06.529Z</time>
      </trkpt>
      <trkpt lat="50.604742" lon="5.402734">
        <ele>97.765904</ele>
        <time>2026-03-18T01:05:26.970Z</time>
      </trkpt>
      <trkpt lat="50.604797" lon="5.402823">
        <ele>97.705606</ele>
        <time>2026-03-18T01:05:34.893Z</time>
      </trkpt>
      <trkpt lat="50.605093" lon="5.403138">
        <ele>97.432419</ele>
        <time>2026-03-18T01:06:11.444Z</time>
      </trkpt>
      <trkpt lat="50.605132" lon="5.403178">
        <ele>97.396828</ele>
        <time>2026-03-18T01:06:16.224Z</time>
      </trkpt>
      <trkpt lat="50.605406" lon="5.403496">
        <ele>97.660336</ele>
        <time>2026-03-18T01:06:52.036Z</time>
      </trkpt>
      <trkpt lat="50.605447" lon="5.403560">
        <ele>97.729849</ele>
        <time>2026-03-18T01:06:58.353Z</time>
      </trkpt>
      <trkpt lat="50.605610" lon="5.403672">
        <ele>97.944031</ele>
        <time>2026-03-18T01:07:17.661Z</time>
      </trkpt>
      <trkpt lat="50.605639" lon="5.403912">
        <ele>98.130785</ele>
        <time>2026-03-18T01:07:34.542Z</time>
      </trkpt>
      <trkpt lat="50.605578" lon="5.404099">
        <ele>98.291507</ele>
        <time>2026-03-18T01:07:48.907Z</time>
      </trkpt>
      <trkpt lat="50.605502" lon="5.404132">
        <ele>98.386458</ele>
        <time>2026-03-18T01:07:57.254Z</time>
      </trkpt>
      <trkpt lat="50.605356" lon="5.404120">
        <ele>98.562547</ele>
        <time>2026-03-18T01:08:12.715Z</time>
      </trkpt>
      <trkpt lat="50.605207" lon="5.404210">
        <ele>98.754746</ele>
        <time>2026-03-18T01:08:29.254Z</time>
      </trkpt>
      <trkpt lat="50.605064" lon="5.404554">
        <ele>99.069093</ele>
        <time>2026-03-18T01:08:56.532Z</time>
      </trkpt>
      <trkpt lat="50.604894" lon="5.404728">
        <ele>99.313259</ele>
        <time>2026-03-18T01:09:17.519Z</time>
      </trkpt>
      <trkpt lat="50.604743" lon="5.404803">
        <ele>99.503954</ele>
        <time>2026-03-18T01:09:33.569Z</time>
      </trkpt>
      <trkpt lat="50.604492" lon="5.405096">
        <ele>99.359513</ele>
        <time>2026-03-18T01:10:04.857Z</time>
      </trkpt>
      <trkpt lat="50.604403" lon="5.405287">
        <ele>99.288360</ele>
        <time>2026-03-18T01:10:20.014Z</time>
      </trkpt>
      <trkpt lat="50.604389" lon="5.405431">
        <ele>99.244615</ele>
        <time>2026-03-18T01:10:29.443Z</time>
      </trkpt>
      <trkpt lat="50.604298" lon="5.405547">
        <ele>99.189234</ele>
        <time>2026-03-18T01:10:41.360Z</time>
      </trkpt>
      <trkpt lat="50.604033" lon="5.405602">
        <ele>99.062770</ele>
        <time>2026-03-18T01:11:08.835Z</time>
      </trkpt>
      <trkpt lat="50.603467" lon="5.405629">
        <ele>98.794853</ele>
        <time>2026-03-18T01:12:05.841Z</time>
      </trkpt>
      <trkpt lat="50.603099" lon="5.405556">
        <ele>98.460464</ele>
        <time>2026-03-18T01:12:43.134Z</time>
      </trkpt>
      <trkpt lat="50.603011" lon="5.405627">
        <ele>98.207209</ele>
        <time>2026-03-18T01:12:53.143Z</time>
      </trkpt>
      <trkpt lat="50.602749" lon="5.405675">
        <ele>97.531554</ele>
        <time>2026-03-18T01:13:20.627Z</time>
      </trkpt>
      <trkpt lat="50.602594" lon="5.405791">
        <ele>97.091995</ele>
        <time>2026-03-18T01:13:38.659Z</time>
      </trkpt>
      <trkpt lat="50.602423" lon="5.405843">
        <ele>96.645882</ele>
        <time>2026-03-18T01:13:57.095Z</time>
      </trkpt>
      <trkpt lat="50.602289" lon="5.405839">
        <ele>96.302570</ele>
        <time>2026-03-18T01:14:11.214Z</time>
      </trkpt>
      <trkpt lat="50.601762" lon="5.405440">
        <ele>94.804842</ele>
        <time>2026-03-18T01:15:13.166Z</time>
      </trkpt>
      <trkpt lat="50.601615" lon="5.405393">
        <ele>94.420615</ele>
        <time>2026-03-18T01:15:29.535Z</time>
      </trkpt>
      <trkpt lat="50.601507" lon="5.405431">
        <ele>94.137150</ele>
        <time>2026-03-18T01:15:41.596Z</time>
      </trkpt>
      <trkpt lat="50.601375" lon="5.405547">
        <ele>93.756923</ele>
        <time>2026-03-18T01:15:58.159Z</time>
      </trkpt>
      <trkpt lat="50.601274" lon="5.405767">
        <ele>93.325756</ele>
        <time>2026-03-18T01:16:16.889Z</time>
      </trkpt>
      <trkpt lat="50.601170" lon="5.405923">
        <ele>92.966490</ele>
        <time>2026-03-18T01:16:32.493Z</time>
      </trkpt>
      <trkpt lat="50.600731" lon="5.406036">
        <ele>91.853591</ele>
        <time>2026-03-18T01:17:19.899Z</time>
      </trkpt>
      <trkpt lat="50.600682" lon="5.406059">
        <ele>91.725673</ele>
        <time>2026-03-18T01:17:25.249Z</time>
      </trkpt>
      <trkpt lat="50.600589" lon="5.406145">
        <ele>91.455877</ele>
        <time>2026-03-18T01:17:36.394Z</time>
      </trkpt>
      <trkpt lat="50.600527" lon="5.406432">
        <ele>90.974442</ele>
        <time>2026-03-18T01:17:56.282Z</time>
      </trkpt>
      <trkpt lat="50.600459" lon="5.406568">
        <ele>90.699510</ele>
        <time>2026-03-18T01:18:07.644Z</time>
      </trkpt>
      <trkpt lat="50.600195" lon="5.406844">
        <ele>89.906814</ele>
        <time>2026-03-18T01:18:40.303Z</time>
      </trkpt>
      <trkpt lat="50.600270" lon="5.407824">
        <ele>89.547970</ele>
        <time>2026-03-18T01:19:44.218Z</time>
      </trkpt>
      <trkpt lat="50.600287" lon="5.408211">
        <ele>89.547970</ele>
        <time>2026-03-18T01:20:09.322Z</time>
      </trkpt>
      <trkpt lat="50.600282" lon="5.408417">
        <ele>89.547970</ele>
        <time>2026-03-18T01:20:22.690Z</time>
      </trkpt>
      <trkpt lat="50.600231" lon="5.408717">
        <ele>89.547970</ele>
        <time>2026-03-18T01:20:42.905Z</time>
      </trkpt>
      <trkpt lat="50.599698" lon="5.410231">
        <ele>89.547970</ele>
        <time>2026-03-18T01:22:36.208Z</time>
      </trkpt>
      <trkpt lat="50.599661" lon="5.410327">
        <ele>89.547970</ele>
        <time>2026-03-18T01:22:43.591Z</time>
      </trkpt>
      <trkpt lat="50.599530" lon="5.410757">
        <ele>89.547970</ele>
        <time>2026-03-18T01:23:14.706Z</time>
      </trkpt>
    </trkseg>
  </trk>
</gpx>