<?xml version='1.0' encoding='UTF-8'?>
<gpx version="1.1" creator="https://www.komoot.de" xmlns="http://www.topografix.com/GPX/1/1" xmlns:xsi="http://www.w3.org/2001/XMLSchema-instance" xsi:schemaLocation="http://www.topografix.com/GPX/1/1 http://www.topografix.com/GPX/1/1/gpx.xsd">
  <metadata>
    <name>Awirs Trail 12km</name>
    <author>
      <link href="https://www.komoot.de">
        <text>komoot</text>
        <type>text/html</type>
      </link>
    </author>
  </metadata>
  <trk>
    <name>Awirs Trail 12km</name>
    <trkseg>
      <trkpt lat="50.600082" lon="5.409142">
        <ele>86.929733</ele>
        <time>2026-03-01T21:19:33.255Z</time>
      </trkpt>
      <trkpt lat="50.599698" lon="5.410231">
        <ele>86.929733</ele>
        <time>2026-03-01T21:20:53.951Z</time>
      </trkpt>
      <trkpt lat="50.599661" lon="5.410327">
        <ele>86.929733</ele>
        <time>2026-03-01T21:21:01.230Z</time>
      </trkpt>
      <trkpt lat="50.599203" lon="5.411829">
        <ele>87.355071</ele>
        <time>2026-03-01T21:22:47.367Z</time>
      </trkpt>
      <trkpt lat="50.599092" lon="5.411897">
        <ele>87.404716</ele>
        <time>2026-03-01T21:22:59.933Z</time>
      </trkpt>
      <trkpt lat="50.598957" lon="5.411907">
        <ele>87.461052</ele>
        <time>2026-03-01T21:23:14.192Z</time>
      </trkpt>
      <trkpt lat="50.598921" lon="5.412025">
        <ele>87.495693</ele>
        <time>2026-03-01T21:23:22.875Z</time>
      </trkpt>
      <trkpt lat="50.598672" lon="5.412409">
        <ele>87.640939</ele>
        <time>2026-03-01T21:23:59.526Z</time>
      </trkpt>
      <trkpt lat="50.598522" lon="5.412560">
        <ele>87.702229</ele>
        <time>2026-03-01T21:24:18.157Z</time>
      </trkpt>
      <trkpt lat="50.598178" lon="5.412544">
        <ele>87.793732</ele>
        <time>2026-03-01T21:24:54.212Z</time>
      </trkpt>
      <trkpt lat="50.598106" lon="5.412509">
        <ele>87.813766</ele>
        <time>2026-03-01T21:25:02.019Z</time>
      </trkpt>
      <trkpt lat="50.596539" lon="5.412329">
        <ele>87.857152</ele>
        <time>2026-03-01T21:27:39.556Z</time>
      </trkpt>
      <trkpt lat="50.596307" lon="5.412197">
        <ele>87.590024</ele>
        <time>2026-03-01T21:28:05.701Z</time>
      </trkpt>
      <trkpt lat="50.596257" lon="5.412163">
        <ele>87.531048</ele>
        <time>2026-03-01T21:28:11.491Z</time>
      </trkpt>
      <trkpt lat="50.596091" lon="5.412001">
        <ele>87.319579</ele>
        <time>2026-03-01T21:28:32.345Z</time>
      </trkpt>
      <trkpt lat="50.595519" lon="5.411276">
        <ele>86.524527</ele>
        <time>2026-03-01T21:29:49.549Z</time>
      </trkpt>
      <trkpt lat="50.595250" lon="5.410989">
        <ele>86.512547</ele>
        <time>2026-03-01T21:30:22.166Z</time>
      </trkpt>
      <trkpt lat="50.595196" lon="5.410983">
        <ele>86.989607</ele>
        <time>2026-03-01T21:30:27.809Z</time>
      </trkpt>
      <trkpt lat="50.595105" lon="5.411072">
        <ele>87.933533</ele>
        <time>2026-03-01T21:30:38.986Z</time>
      </trkpt>
      <trkpt lat="50.595053" lon="5.411090">
        <ele>88.402718</ele>
        <time>2026-03-01T21:30:44.880Z</time>
      </trkpt>
      <trkpt lat="50.594959" lon="5.411104">
        <ele>89.234792</ele>
        <time>2026-03-01T21:30:55.162Z</time>
      </trkpt>
      <trkpt lat="50.595017" lon="5.411494">
        <ele>91.475598</ele>
        <time>2026-03-01T21:31:25.094Z</time>
      </trkpt>
      <trkpt lat="50.595118" lon="5.411966">
        <ele>94.262032</ele>
        <time>2026-03-01T21:32:05.945Z</time>
      </trkpt>
      <trkpt lat="50.595200" lon="5.412352">
        <ele>96.539087</ele>
        <time>2026-03-01T21:32:41.308Z</time>
      </trkpt>
      <trkpt lat="50.595213" lon="5.412411">
        <ele>96.888460</ele>
        <time>2026-03-01T21:32:46.964Z</time>
      </trkpt>
      <trkpt lat="50.595239" lon="5.412500">
        <ele>97.436533</ele>
        <time>2026-03-01T21:32:56.247Z</time>
      </trkpt>
      <trkpt lat="50.595087" lon="5.412559">
        <ele>98.816104</ele>
        <time>2026-03-01T21:33:20.106Z</time>
      </trkpt>
      <trkpt lat="50.594801" lon="5.412813">
        <ele>101.709439</ele>
        <time>2026-03-01T21:34:13.346Z</time>
      </trkpt>
      <trkpt lat="50.594740" lon="5.412897">
        <ele>102.735711</ele>
        <time>2026-03-01T21:34:26.692Z</time>
      </trkpt>
      <trkpt lat="50.594755" lon="5.412985">
        <ele>103.684026</ele>
        <time>2026-03-01T21:34:36.363Z</time>
      </trkpt>
      <trkpt lat="50.594842" lon="5.413179">
        <ele>106.156117</ele>
        <time>2026-03-01T21:35:02.157Z</time>
      </trkpt>
      <trkpt lat="50.594886" lon="5.413203">
        <ele>106.919523</ele>
        <time>2026-03-01T21:35:10.352Z</time>
      </trkpt>
      <trkpt lat="50.595168" lon="5.413580">
        <ele>112.983444</ele>
        <time>2026-03-01T21:36:18.217Z</time>
      </trkpt>
      <trkpt lat="50.595175" lon="5.413738">
        <ele>114.631836</ele>
        <time>2026-03-01T21:36:37.135Z</time>
      </trkpt>
      <trkpt lat="50.595252" lon="5.413905">
        <ele>116.779990</ele>
        <time>2026-03-01T21:37:01.853Z</time>
      </trkpt>
      <trkpt lat="50.595244" lon="5.413964">
        <ele>117.407886</ele>
        <time>2026-03-01T21:37:09.118Z</time>
      </trkpt>
      <trkpt lat="50.595364" lon="5.414077">
        <ele>119.700006</ele>
        <time>2026-03-01T21:37:35.180Z</time>
      </trkpt>
      <trkpt lat="50.595365" lon="5.414137">
        <ele>120.324672</ele>
        <time>2026-03-01T21:37:42.337Z</time>
      </trkpt>
      <trkpt lat="50.595413" lon="5.414179">
        <ele>121.224885</ele>
        <time>2026-03-01T21:37:52.416Z</time>
      </trkpt>
      <trkpt lat="50.595427" lon="5.414434">
        <ele>123.888704</ele>
        <time>2026-03-01T21:38:21.035Z</time>
      </trkpt>
      <trkpt lat="50.595380" lon="5.414568">
        <ele>125.482034</ele>
        <time>2026-03-01T21:38:38.669Z</time>
      </trkpt>
      <trkpt lat="50.595466" lon="5.414767">
        <ele>127.987521</ele>
        <time>2026-03-01T21:39:05.304Z</time>
      </trkpt>
      <trkpt lat="50.595462" lon="5.415250">
        <ele>132.319246</ele>
        <time>2026-03-01T21:39:55.819Z</time>
      </trkpt>
      <trkpt lat="50.595462" lon="5.415251">
        <ele>132.324714</ele>
        <time>2026-03-01T21:39:55.956Z</time>
      </trkpt>
      <trkpt lat="50.595521" lon="5.415506">
        <ele>133.808627</ele>
        <time>2026-03-01T21:40:22.729Z</time>
      </trkpt>
      <trkpt lat="50.595534" lon="5.415771">
        <ele>135.261812</ele>
        <time>2026-03-01T21:40:48.397Z</time>
      </trkpt>
      <trkpt lat="50.595452" lon="5.415969">
        <ele>136.554373</ele>
        <time>2026-03-01T21:41:11.202Z</time>
      </trkpt>
      <trkpt lat="50.595333" lon="5.416078">
        <ele>137.739977</ele>
        <time>2026-03-01T21:41:31.670Z</time>
      </trkpt>
      <trkpt lat="50.594791" lon="5.416319">
        <ele>142.590588</ele>
        <time>2026-03-01T21:42:45.206Z</time>
      </trkpt>
      <trkpt lat="50.594335" lon="5.416960">
        <ele>146.548627</ele>
        <time>2026-03-01T21:43:52.358Z</time>
      </trkpt>
      <trkpt lat="50.593882" lon="5.416773">
        <ele>144.106549</ele>
        <time>2026-03-01T21:44:41.256Z</time>
      </trkpt>
      <trkpt lat="50.593382" lon="5.415658">
        <ele>139.587344</ele>
        <time>2026-03-01T21:46:21.854Z</time>
      </trkpt>
      <trkpt lat="50.592679" lon="5.414092">
        <ele>136.346651</ele>
        <time>2026-03-01T21:48:43.575Z</time>
      </trkpt>
      <trkpt lat="50.592588" lon="5.414117">
        <ele>136.203472</ele>
        <time>2026-03-01T21:48:53.233Z</time>
      </trkpt>
      <trkpt lat="50.591669" lon="5.414561">
        <ele>135.537855</ele>
        <time>2026-03-01T21:50:42.898Z</time>
      </trkpt>
      <trkpt lat="50.591820" lon="5.415282">
        <ele>138.638297</ele>
        <time>2026-03-01T21:51:46.031Z</time>
      </trkpt>
      <trkpt lat="50.591821" lon="5.415403">
        <ele>139.132468</ele>
        <time>2026-03-01T21:51:55.854Z</time>
      </trkpt>
      <trkpt lat="50.591709" lon="5.415860">
        <ele>141.132963</ele>
        <time>2026-03-01T21:52:34.581Z</time>
      </trkpt>
      <trkpt lat="50.591696" lon="5.416043">
        <ele>141.884949</ele>
        <time>2026-03-01T21:52:48.855Z</time>
      </trkpt>
      <trkpt lat="50.591745" lon="5.416845">
        <ele>145.175225</ele>
        <time>2026-03-01T21:53:50.773Z</time>
      </trkpt>
      <trkpt lat="50.591735" lon="5.416979">
        <ele>145.726211</ele>
        <time>2026-03-01T21:54:00.988Z</time>
      </trkpt>
      <trkpt lat="50.591459" lon="5.417165">
        <ele>146.768043</ele>
        <time>2026-03-01T21:54:36.688Z</time>
      </trkpt>
      <trkpt lat="50.591636" lon="5.418017">
        <ele>147.746584</ele>
        <time>2026-03-01T21:55:43.122Z</time>
      </trkpt>
      <trkpt lat="50.591816" lon="5.418887">
        <ele>148.745401</ele>
        <time>2026-03-01T21:56:45.948Z</time>
      </trkpt>
      <trkpt lat="50.591486" lon="5.419263">
        <ele>149.445689</ele>
        <time>2026-03-01T21:57:27.746Z</time>
      </trkpt>
      <trkpt lat="50.590908" lon="5.419856">
        <ele>145.917749</ele>
        <time>2026-03-01T21:58:46.130Z</time>
      </trkpt>
      <trkpt lat="50.590357" lon="5.420339">
        <ele>142.336360</ele>
        <time>2026-03-01T22:00:00.231Z</time>
      </trkpt>
      <trkpt lat="50.590330" lon="5.420587">
        <ele>141.429087</ele>
        <time>2026-03-01T22:00:18.634Z</time>
      </trkpt>
      <trkpt lat="50.590434" lon="5.421146">
        <ele>139.328724</ele>
        <time>2026-03-01T22:00:59.840Z</time>
      </trkpt>
      <trkpt lat="50.590550" lon="5.422224">
        <ele>141.704340</ele>
        <time>2026-03-01T22:02:10.100Z</time>
      </trkpt>
      <trkpt lat="50.590600" lon="5.422425">
        <ele>142.175906</ele>
        <time>2026-03-01T22:02:26.362Z</time>
      </trkpt>
      <trkpt lat="50.590752" lon="5.422523">
        <ele>142.741018</ele>
        <time>2026-03-01T22:02:46.154Z</time>
      </trkpt>
      <trkpt lat="50.590858" lon="5.422855">
        <ele>143.552781</ele>
        <time>2026-03-01T22:03:15.241Z</time>
      </trkpt>
      <trkpt lat="50.590913" lon="5.422949">
        <ele>143.832019</ele>
        <time>2026-03-01T22:03:25.295Z</time>
      </trkpt>
      <trkpt lat="50.591063" lon="5.423099">
        <ele>144.443356</ele>
        <time>2026-03-01T22:03:47.581Z</time>
      </trkpt>
      <trkpt lat="50.591394" lon="5.423561">
        <ele>146.336609</ele>
        <time>2026-03-01T22:04:43.513Z</time>
      </trkpt>
      <trkpt lat="50.591677" lon="5.423850">
        <ele>148.443615</ele>
        <time>2026-03-01T22:05:26.225Z</time>
      </trkpt>
      <trkpt lat="50.593944" lon="5.422470">
        <ele>161.967858</ele>
        <time>2026-03-01T22:10:16.991Z</time>
      </trkpt>
      <trkpt lat="50.594704" lon="5.422007">
        <ele>165.250938</ele>
        <time>2026-03-01T22:11:49.416Z</time>
      </trkpt>
      <trkpt lat="50.594850" lon="5.421866">
        <ele>165.218159</ele>
        <time>2026-03-01T22:12:08.121Z</time>
      </trkpt>
      <trkpt lat="50.594915" lon="5.421678">
        <ele>165.192147</ele>
        <time>2026-03-01T22:12:22.549Z</time>
      </trkpt>
      <trkpt lat="50.595038" lon="5.422305">
        <ele>165.112408</ele>
        <time>2026-03-01T22:13:05.261Z</time>
      </trkpt>
      <trkpt lat="50.595155" lon="5.423093">
        <ele>165.014077</ele>
        <time>2026-03-01T22:13:58.039Z</time>
      </trkpt>
      <trkpt lat="50.595109" lon="5.423473">
        <ele>164.967073</ele>
        <time>2026-03-01T22:14:23.880Z</time>
      </trkpt>
      <trkpt lat="50.594843" lon="5.424245">
        <ele>163.585994</ele>
        <time>2026-03-01T22:15:23.359Z</time>
      </trkpt>
      <trkpt lat="50.594845" lon="5.424500">
        <ele>162.981323</ele>
        <time>2026-03-01T22:15:40.891Z</time>
      </trkpt>
      <trkpt lat="50.595231" lon="5.425418">
        <ele>160.370487</ele>
        <time>2026-03-01T22:16:56.777Z</time>
      </trkpt>
      <trkpt lat="50.595262" lon="5.425798">
        <ele>159.462075</ele>
        <time>2026-03-01T22:17:23.427Z</time>
      </trkpt>
      <trkpt lat="50.595133" lon="5.426254">
        <ele>158.278367</ele>
        <time>2026-03-01T22:17:57.950Z</time>
      </trkpt>
      <trkpt lat="50.595044" lon="5.426753">
        <ele>157.941630</ele>
        <time>2026-03-01T22:18:33.234Z</time>
      </trkpt>
      <trkpt lat="50.594821" lon="5.427486">
        <ele>157.494756</ele>
        <time>2026-03-01T22:19:27.229Z</time>
      </trkpt>
      <trkpt lat="50.594803" lon="5.427714">
        <ele>157.368441</ele>
        <time>2026-03-01T22:19:42.040Z</time>
      </trkpt>
      <trkpt lat="50.594840" lon="5.427946">
        <ele>157.236930</ele>
        <time>2026-03-01T22:19:57.341Z</time>
      </trkpt>
      <trkpt lat="50.595046" lon="5.428892">
        <ele>156.687093</ele>
        <time>2026-03-01T22:21:03.817Z</time>
      </trkpt>
      <trkpt lat="50.595259" lon="5.429481">
        <ele>156.799145</ele>
        <time>2026-03-01T22:21:50.954Z</time>
      </trkpt>
      <trkpt lat="50.595260" lon="5.429484">
        <ele>156.799947</ele>
        <time>2026-03-01T22:21:51.170Z</time>
      </trkpt>
      <trkpt lat="50.595508" lon="5.429970">
        <ele>156.947593</ele>
        <time>2026-03-01T22:22:32.839Z</time>
      </trkpt>
      <trkpt lat="50.595584" lon="5.429985">
        <ele>156.976162</ele>
        <time>2026-03-01T22:22:40.594Z</time>
      </trkpt>
      <trkpt lat="50.595714" lon="5.429955">
        <ele>157.025170</ele>
        <time>2026-03-01T22:22:53.791Z</time>
      </trkpt>
      <trkpt lat="50.595551" lon="5.430992">
        <ele>157.278124</ele>
        <time>2026-03-01T22:24:03.254Z</time>
      </trkpt>
      <trkpt lat="50.595425" lon="5.431479">
        <ele>157.464942</ele>
        <time>2026-03-01T22:24:37.223Z</time>
      </trkpt>
      <trkpt lat="50.595357" lon="5.431882">
        <ele>157.642009</ele>
        <time>2026-03-01T22:25:04.029Z</time>
      </trkpt>
      <trkpt lat="50.595453" lon="5.432354">
        <ele>157.852471</ele>
        <time>2026-03-01T22:25:35.604Z</time>
      </trkpt>
      <trkpt lat="50.595477" lon="5.432670">
        <ele>157.987610</ele>
        <time>2026-03-01T22:25:56.109Z</time>
      </trkpt>
      <trkpt lat="50.595552" lon="5.432764">
        <ele>158.051721</ele>
        <time>2026-03-01T22:26:06.085Z</time>
      </trkpt>
      <trkpt lat="50.595726" lon="5.433142">
        <ele>158.249989</ele>
        <time>2026-03-01T22:26:37.269Z</time>
      </trkpt>
      <trkpt lat="50.595772" lon="5.433178">
        <ele>158.284348</ele>
        <time>2026-03-01T22:26:42.637Z</time>
      </trkpt>
      <trkpt lat="50.595792" lon="5.433242">
        <ele>158.314639</ele>
        <time>2026-03-01T22:26:47.554Z</time>
      </trkpt>
      <trkpt lat="50.595873" lon="5.433299">
        <ele>158.373982</ele>
        <time>2026-03-01T22:26:57.186Z</time>
      </trkpt>
      <trkpt lat="50.595980" lon="5.433563">
        <ele>158.506984</ele>
        <time>2026-03-01T22:27:18.831Z</time>
      </trkpt>
      <trkpt lat="50.596136" lon="5.433712">
        <ele>158.845271</ele>
        <time>2026-03-01T22:27:39.056Z</time>
      </trkpt>
      <trkpt lat="50.596201" lon="5.433709">
        <ele>158.981231</ele>
        <time>2026-03-01T22:27:46.355Z</time>
      </trkpt>
      <trkpt lat="50.596274" lon="5.433823">
        <ele>159.196143</ele>
        <time>2026-03-01T22:27:57.636Z</time>
      </trkpt>
      <trkpt lat="50.596267" lon="5.433887">
        <ele>159.282335</ele>
        <time>2026-03-01T22:28:02.203Z</time>
      </trkpt>
      <trkpt lat="50.596305" lon="5.433934">
        <ele>159.383347</ele>
        <time>2026-03-01T22:28:07.435Z</time>
      </trkpt>
      <trkpt lat="50.596238" lon="5.434379">
        <ele>159.990335</ele>
        <time>2026-03-01T22:28:38.458Z</time>
      </trkpt>
      <trkpt lat="50.596235" lon="5.435305">
        <ele>161.219336</ele>
        <time>2026-03-01T22:29:40.175Z</time>
      </trkpt>
      <trkpt lat="50.596460" lon="5.435336">
        <ele>161.691560</ele>
        <time>2026-03-01T22:30:04.084Z</time>
      </trkpt>
      <trkpt lat="50.597230" lon="5.435327">
        <ele>163.924381</ele>
        <time>2026-03-01T22:31:28.792Z</time>
      </trkpt>
      <trkpt lat="50.597328" lon="5.435295">
        <ele>164.262216</ele>
        <time>2026-03-01T22:31:39.910Z</time>
      </trkpt>
      <trkpt lat="50.597470" lon="5.435092">
        <ele>164.909479</ele>
        <time>2026-03-01T22:32:01.262Z</time>
      </trkpt>
      <trkpt lat="50.597579" lon="5.434999">
        <ele>165.327910</ele>
        <time>2026-03-01T22:32:15.162Z</time>
      </trkpt>
      <trkpt lat="50.597662" lon="5.434961">
        <ele>165.619672</ele>
        <time>2026-03-01T22:32:24.807Z</time>
      </trkpt>
      <trkpt lat="50.597843" lon="5.434954">
        <ele>166.230830</ele>
        <time>2026-03-01T22:32:45.064Z</time>
      </trkpt>
      <trkpt lat="50.598284" lon="5.434874">
        <ele>167.729284</ele>
        <time>2026-03-01T22:33:35.543Z</time>
      </trkpt>
      <trkpt lat="50.598354" lon="5.434748">
        <ele>168.088056</ele>
        <time>2026-03-01T22:33:47.718Z</time>
      </trkpt>
      <trkpt lat="50.598507" lon="5.435323">
        <ele>169.642587</ele>
        <time>2026-03-01T22:34:33.526Z</time>
      </trkpt>
      <trkpt lat="50.598971" lon="5.435251">
        <ele>171.539634</ele>
        <time>2026-03-01T22:35:26.884Z</time>
      </trkpt>
      <trkpt lat="50.599465" lon="5.435209">
        <ele>173.552533</ele>
        <time>2026-03-01T22:36:22.842Z</time>
      </trkpt>
      <trkpt lat="50.599694" lon="5.435311">
        <ele>174.520804</ele>
        <time>2026-03-01T22:36:50.114Z</time>
      </trkpt>
      <trkpt lat="50.599830" lon="5.435401">
        <ele>175.120991</ele>
        <time>2026-03-01T22:37:07.099Z</time>
      </trkpt>
      <trkpt lat="50.600026" lon="5.435650">
        <ele>176.184533</ele>
        <time>2026-03-01T22:37:35.977Z</time>
      </trkpt>
      <trkpt lat="50.600258" lon="5.436135">
        <ele>177.883979</ele>
        <time>2026-03-01T22:38:20.233Z</time>
      </trkpt>
      <trkpt lat="50.600359" lon="5.436271">
        <ele>178.469733</ele>
        <time>2026-03-01T22:38:35.523Z</time>
      </trkpt>
      <trkpt lat="50.600562" lon="5.436418">
        <ele>179.454706</ele>
        <time>2026-03-01T22:39:01.228Z</time>
      </trkpt>
      <trkpt lat="50.600776" lon="5.436295">
        <ele>180.458990</ele>
        <time>2026-03-01T22:39:27.392Z</time>
      </trkpt>
      <trkpt lat="50.601443" lon="5.435729">
        <ele>183.743750</ele>
        <time>2026-03-01T22:40:55.999Z</time>
      </trkpt>
      <trkpt lat="50.602011" lon="5.435443">
        <ele>185.615324</ele>
        <time>2026-03-01T22:42:04.591Z</time>
      </trkpt>
      <trkpt lat="50.602348" lon="5.435389">
        <ele>186.678501</ele>
        <time>2026-03-01T22:42:42.951Z</time>
      </trkpt>
      <trkpt lat="50.603581" lon="5.435414">
        <ele>189.314073</ele>
        <time>2026-03-01T22:44:54.944Z</time>
      </trkpt>
      <trkpt lat="50.603001" lon="5.434015">
        <ele>189.472149</ele>
        <time>2026-03-01T22:46:41.598Z</time>
      </trkpt>
      <trkpt lat="50.602816" lon="5.433514">
        <ele>189.471715</ele>
        <time>2026-03-01T22:47:19.211Z</time>
      </trkpt>
      <trkpt lat="50.602870" lon="5.433339">
        <ele>189.330671</ele>
        <time>2026-03-01T22:47:31.850Z</time>
      </trkpt>
      <trkpt lat="50.602821" lon="5.428152">
        <ele>185.251031</ele>
        <time>2026-03-01T22:53:09.547Z</time>
      </trkpt>
      <trkpt lat="50.602773" lon="5.427859">
        <ele>184.889000</ele>
        <time>2026-03-01T22:53:29.495Z</time>
      </trkpt>
      <trkpt lat="50.602693" lon="5.427569">
        <ele>184.225235</ele>
        <time>2026-03-01T22:53:50.282Z</time>
      </trkpt>
      <trkpt lat="50.602341" lon="5.426495">
        <ele>181.687906</ele>
        <time>2026-03-01T22:55:11.222Z</time>
      </trkpt>
      <trkpt lat="50.602340" lon="5.426490">
        <ele>181.676901</ele>
        <time>2026-03-01T22:55:11.580Z</time>
      </trkpt>
      <trkpt lat="50.602164" lon="5.425819">
        <ele>180.152824</ele>
        <time>2026-03-01T22:56:01.383Z</time>
      </trkpt>
      <trkpt lat="50.602020" lon="5.425100">
        <ele>178.271970</ele>
        <time>2026-03-01T22:56:54.236Z</time>
      </trkpt>
      <trkpt lat="50.601929" lon="5.424484">
        <ele>176.221054</ele>
        <time>2026-03-01T22:57:39.356Z</time>
      </trkpt>
      <trkpt lat="50.601868" lon="5.423236">
        <ele>172.162135</ele>
        <time>2026-03-01T22:59:08.555Z</time>
      </trkpt>
      <trkpt lat="50.601838" lon="5.423013">
        <ele>171.422939</ele>
        <time>2026-03-01T22:59:24.338Z</time>
      </trkpt>
      <trkpt lat="50.601793" lon="5.422723">
        <ele>170.454847</ele>
        <time>2026-03-01T22:59:44.773Z</time>
      </trkpt>
      <trkpt lat="50.601671" lon="5.422561">
        <ele>169.654616</ele>
        <time>2026-03-01T23:00:01.845Z</time>
      </trkpt>
      <trkpt lat="50.601767" lon="5.422513">
        <ele>169.166657</ele>
        <time>2026-03-01T23:00:12.574Z</time>
      </trkpt>
      <trkpt lat="50.602558" lon="5.422362">
        <ele>165.306402</ele>
        <time>2026-03-01T23:01:36.799Z</time>
      </trkpt>
      <trkpt lat="50.602778" lon="5.422286">
        <ele>164.215229</ele>
        <time>2026-03-01T23:02:00.856Z</time>
      </trkpt>
      <trkpt lat="50.602976" lon="5.422170">
        <ele>163.191791</ele>
        <time>2026-03-01T23:02:23.846Z</time>
      </trkpt>
      <trkpt lat="50.603656" lon="5.421548">
        <ele>157.925313</ele>
        <time>2026-03-01T23:03:56.166Z</time>
      </trkpt>
      <trkpt lat="50.604159" lon="5.421000">
        <ele>152.605783</ele>
        <time>2026-03-01T23:05:11.297Z</time>
      </trkpt>
      <trkpt lat="50.604512" lon="5.420787">
        <ele>149.317697</ele>
        <time>2026-03-01T23:05:56.660Z</time>
      </trkpt>
      <trkpt lat="50.604682" lon="5.420698">
        <ele>147.759436</ele>
        <time>2026-03-01T23:06:17.596Z</time>
      </trkpt>
      <trkpt lat="50.605551" lon="5.421502">
        <ele>143.329340</ele>
        <time>2026-03-01T23:08:06.956Z</time>
      </trkpt>
      <trkpt lat="50.605809" lon="5.421686">
        <ele>142.490429</ele>
        <time>2026-03-01T23:08:35.485Z</time>
      </trkpt>
      <trkpt lat="50.606020" lon="5.421714">
        <ele>141.863174</ele>
        <time>2026-03-01T23:08:56.900Z</time>
      </trkpt>
      <trkpt lat="50.606331" lon="5.421686">
        <ele>140.940401</ele>
        <time>2026-03-01T23:09:28.631Z</time>
      </trkpt>
      <trkpt lat="50.608210" lon="5.421336">
        <ele>133.674092</ele>
        <time>2026-03-01T23:12:51.238Z</time>
      </trkpt>
      <trkpt lat="50.608919" lon="5.421214">
        <ele>129.368954</ele>
        <time>2026-03-01T23:14:13.492Z</time>
      </trkpt>
      <trkpt lat="50.609185" lon="5.420995">
        <ele>127.401665</ele>
        <time>2026-03-01T23:14:49.082Z</time>
      </trkpt>
      <trkpt lat="50.609304" lon="5.420942">
        <ele>126.591058</ele>
        <time>2026-03-01T23:15:03.599Z</time>
      </trkpt>
      <trkpt lat="50.609800" lon="5.420869">
        <ele>123.325611</ele>
        <time>2026-03-01T23:16:01.197Z</time>
      </trkpt>
      <trkpt lat="50.609985" lon="5.420748">
        <ele>122.012621</ele>
        <time>2026-03-01T23:16:23.636Z</time>
      </trkpt>
      <trkpt lat="50.610068" lon="5.420447">
        <ele>121.765110</ele>
        <time>2026-03-01T23:16:46.147Z</time>
      </trkpt>
      <trkpt lat="50.610138" lon="5.420432">
        <ele>122.074752</ele>
        <time>2026-03-01T23:16:53.483Z</time>
      </trkpt>
      <trkpt lat="50.610251" lon="5.420068">
        <ele>123.201871</ele>
        <time>2026-03-01T23:17:19.816Z</time>
      </trkpt>
      <trkpt lat="50.610286" lon="5.419745">
        <ele>124.113296</ele>
        <time>2026-03-01T23:17:41.728Z</time>
      </trkpt>
      <trkpt lat="50.610295" lon="5.419614">
        <ele>124.479801</ele>
        <time>2026-03-01T23:17:50.978Z</time>
      </trkpt>
      <trkpt lat="50.610254" lon="5.419253">
        <ele>125.499873</ele>
        <time>2026-03-01T23:18:18.180Z</time>
      </trkpt>
      <trkpt lat="50.610253" lon="5.418994">
        <ele>126.220292</ele>
        <time>2026-03-01T23:18:38.692Z</time>
      </trkpt>
      <trkpt lat="50.610494" lon="5.418208">
        <ele>128.648359</ele>
        <time>2026-03-01T23:19:51.739Z</time>
      </trkpt>
      <trkpt lat="50.610425" lon="5.417845">
        <ele>130.144654</ele>
        <time>2026-03-01T23:20:24.648Z</time>
      </trkpt>
      <trkpt lat="50.610251" lon="5.417248">
        <ele>133.583675</ele>
        <time>2026-03-01T23:21:23.390Z</time>
      </trkpt>
      <trkpt lat="50.610121" lon="5.416850">
        <ele>135.926913</ele>
        <time>2026-03-01T23:22:03.076Z</time>
      </trkpt>
      <trkpt lat="50.609941" lon="5.416426">
        <ele>138.597341</ele>
        <time>2026-03-01T23:22:46.140Z</time>
      </trkpt>
      <trkpt lat="50.609814" lon="5.415951">
        <ele>141.295572</ele>
        <time>2026-03-01T23:23:27.524Z</time>
      </trkpt>
      <trkpt lat="50.609602" lon="5.415378">
        <ele>143.863981</ele>
        <time>2026-03-01T23:24:15.872Z</time>
      </trkpt>
      <trkpt lat="50.609547" lon="5.415388">
        <ele>143.755047</ele>
        <time>2026-03-01T23:24:21.623Z</time>
      </trkpt>
      <trkpt lat="50.609143" lon="5.415109">
        <ele>142.887164</ele>
        <time>2026-03-01T23:25:06.360Z</time>
      </trkpt>
      <trkpt lat="50.608831" lon="5.414970">
        <ele>142.249220</ele>
        <time>2026-03-01T23:25:40.706Z</time>
      </trkpt>
      <trkpt lat="50.608740" lon="5.415069">
        <ele>142.031645</ele>
        <time>2026-03-01T23:25:52.693Z</time>
      </trkpt>
      <trkpt lat="50.608640" lon="5.415301">
        <ele>141.681458</ele>
        <time>2026-03-01T23:26:12.271Z</time>
      </trkpt>
      <trkpt lat="50.608549" lon="5.415426">
        <ele>141.443930</ele>
        <time>2026-03-01T23:26:25.605Z</time>
      </trkpt>
      <trkpt lat="50.608458" lon="5.415379">
        <ele>141.255509</ele>
        <time>2026-03-01T23:26:36.240Z</time>
      </trkpt>
      <trkpt lat="50.608004" lon="5.414781">
        <ele>140.226726</ele>
        <time>2026-03-01T23:27:41.251Z</time>
      </trkpt>
      <trkpt lat="50.607744" lon="5.414482">
        <ele>139.803790</ele>
        <time>2026-03-01T23:28:15.652Z</time>
      </trkpt>
      <trkpt lat="50.607393" lon="5.414173">
        <ele>139.275492</ele>
        <time>2026-03-01T23:28:56.430Z</time>
      </trkpt>
      <trkpt lat="50.606916" lon="5.413490">
        <ele>138.428612</ele>
        <time>2026-03-01T23:30:00.933Z</time>
      </trkpt>
      <trkpt lat="50.606791" lon="5.413212">
        <ele>138.144504</ele>
        <time>2026-03-01T23:30:22.833Z</time>
      </trkpt>
      <trkpt lat="50.606511" lon="5.412745">
        <ele>139.327616</ele>
        <time>2026-03-01T23:31:04.583Z</time>
      </trkpt>
      <trkpt lat="50.606485" lon="5.412641">
        <ele>139.538443</ele>
        <time>2026-03-01T23:31:11.965Z</time>
      </trkpt>
      <trkpt lat="50.606342" lon="5.412595">
        <ele>139.972196</ele>
        <time>2026-03-01T23:31:27.340Z</time>
      </trkpt>
      <trkpt lat="50.606339" lon="5.412456">
        <ele>140.234519</ele>
        <time>2026-03-01T23:31:36.811Z</time>
      </trkpt>
      <trkpt lat="50.606279" lon="5.412105">
        <ele>140.920144</ele>
        <time>2026-03-01T23:32:01.933Z</time>
      </trkpt>
      <trkpt lat="50.606220" lon="5.411895">
        <ele>141.353307</ele>
        <time>2026-03-01T23:32:17.942Z</time>
      </trkpt>
      <trkpt lat="50.606170" lon="5.411461">
        <ele>142.185267</ele>
        <time>2026-03-01T23:32:49.436Z</time>
      </trkpt>
      <trkpt lat="50.606501" lon="5.410719">
        <ele>144.655179</ele>
        <time>2026-03-01T23:33:57.579Z</time>
      </trkpt>
      <trkpt lat="50.606931" lon="5.410273">
        <ele>148.986116</ele>
        <time>2026-03-01T23:35:02.394Z</time>
      </trkpt>
      <trkpt lat="50.607281" lon="5.410004">
        <ele>152.262222</ele>
        <time>2026-03-01T23:35:53.176Z</time>
      </trkpt>
      <trkpt lat="50.607967" lon="5.409562">
        <ele>158.497297</ele>
        <time>2026-03-01T23:37:32.505Z</time>
      </trkpt>
      <trkpt lat="50.608855" lon="5.409460">
        <ele>165.714847</ele>
        <time>2026-03-01T23:39:30.339Z</time>
      </trkpt>
      <trkpt lat="50.608914" lon="5.409485">
        <ele>166.209818</ele>
        <time>2026-03-01T23:39:38.156Z</time>
      </trkpt>
      <trkpt lat="50.608969" lon="5.409583">
        <ele>166.882434</ele>
        <time>2026-03-01T23:39:48.948Z</time>
      </trkpt>
      <trkpt lat="50.609122" lon="5.410031">
        <ele>169.498096</ele>
        <time>2026-03-01T23:40:30.048Z</time>
      </trkpt>
      <trkpt lat="50.609245" lon="5.410113">
        <ele>170.580099</ele>
        <time>2026-03-01T23:40:46.609Z</time>
      </trkpt>
      <trkpt lat="50.609560" lon="5.410093">
        <ele>173.134159</ele>
        <time>2026-03-01T23:41:24.727Z</time>
      </trkpt>
      <trkpt lat="50.610433" lon="5.410081">
        <ele>175.790357</ele>
        <time>2026-03-01T23:43:03.727Z</time>
      </trkpt>
      <trkpt lat="50.610853" lon="5.410185">
        <ele>177.068381</ele>
        <time>2026-03-01T23:43:50.030Z</time>
      </trkpt>
      <trkpt lat="50.612220" lon="5.410802">
        <ele>179.238994</ele>
        <time>2026-03-01T23:46:16.816Z</time>
      </trkpt>
      <trkpt lat="50.612810" lon="5.409790">
        <ele>179.855880</ele>
        <time>2026-03-01T23:47:45.267Z</time>
      </trkpt>
      <trkpt lat="50.612942" lon="5.409597">
        <ele>179.929562</ele>
        <time>2026-03-01T23:48:03.627Z</time>
      </trkpt>
      <trkpt lat="50.613128" lon="5.409391">
        <ele>180.018042</ele>
        <time>2026-03-01T23:48:26.897Z</time>
      </trkpt>
      <trkpt lat="50.613441" lon="5.409161">
        <ele>180.152453</ele>
        <time>2026-03-01T23:49:02.487Z</time>
      </trkpt>
      <trkpt lat="50.614210" lon="5.408764">
        <ele>180.467396</ele>
        <time>2026-03-01T23:50:25.424Z</time>
      </trkpt>
      <trkpt lat="50.614403" lon="5.408607">
        <ele>180.551928</ele>
        <time>2026-03-01T23:50:47.181Z</time>
      </trkpt>
      <trkpt lat="50.614951" lon="5.408020">
        <ele>179.860710</ele>
        <time>2026-03-01T23:51:54.422Z</time>
      </trkpt>
      <trkpt lat="50.615208" lon="5.407691">
        <ele>179.492184</ele>
        <time>2026-03-01T23:52:28.467Z</time>
      </trkpt>
      <trkpt lat="50.615277" lon="5.407659">
        <ele>179.412130</ele>
        <time>2026-03-01T23:52:35.836Z</time>
      </trkpt>
      <trkpt lat="50.615897" lon="5.407003">
        <ele>178.580962</ele>
        <time>2026-03-01T23:53:53.088Z</time>
      </trkpt>
      <trkpt lat="50.616088" lon="5.406853">
        <ele>178.192070</ele>
        <time>2026-03-01T23:54:15.274Z</time>
      </trkpt>
      <trkpt lat="50.615857" lon="5.405979">
        <ele>177.060281</ele>
        <time>2026-03-01T23:55:17.579Z</time>
      </trkpt>
      <trkpt lat="50.615840" lon="5.405847">
        <ele>176.899271</ele>
        <time>2026-03-01T23:55:26.420Z</time>
      </trkpt>
      <trkpt lat="50.615777" lon="5.405764">
        <ele>176.744573</ele>
        <time>2026-03-01T23:55:34.954Z</time>
      </trkpt>
      <trkpt lat="50.615662" lon="5.405335">
        <ele>176.187859</ele>
        <time>2026-03-01T23:56:05.673Z</time>
      </trkpt>
      <trkpt lat="50.615471" lon="5.404760">
        <ele>175.412010</ele>
        <time>2026-03-01T23:56:48.735Z</time>
      </trkpt>
      <trkpt lat="50.614863" lon="5.403536">
        <ele>173.309572</ele>
        <time>2026-03-01T23:58:31.986Z</time>
      </trkpt>
      <trkpt lat="50.614529" lon="5.402601">
        <ele>171.833485</ele>
        <time>2026-03-01T23:59:43.115Z</time>
      </trkpt>
      <trkpt lat="50.614415" lon="5.402386">
        <ele>171.448040</ele>
        <time>2026-03-02T00:00:01.692Z</time>
      </trkpt>
      <trkpt lat="50.613736" lon="5.401577">
        <ele>168.958042</ele>
        <time>2026-03-02T00:01:30.728Z</time>
      </trkpt>
      <trkpt lat="50.613030" lon="5.400288">
        <ele>165.466628</ele>
        <time>2026-03-02T00:03:25.758Z</time>
      </trkpt>
      <trkpt lat="50.612822" lon="5.400025">
        <ele>163.424254</ele>
        <time>2026-03-02T00:03:55.138Z</time>
      </trkpt>
      <trkpt lat="50.612606" lon="5.399349">
        <ele>159.745991</ele>
        <time>2026-03-02T00:04:49.404Z</time>
      </trkpt>
      <trkpt lat="50.612487" lon="5.399132">
        <ele>158.352153</ele>
        <time>2026-03-02T00:05:10.403Z</time>
      </trkpt>
      <trkpt lat="50.611514" lon="5.397919">
        <ele>146.759209</ele>
        <time>2026-03-02T00:07:39.105Z</time>
      </trkpt>
      <trkpt lat="50.611226" lon="5.397687">
        <ele>142.685612</ele>
        <time>2026-03-02T00:08:19.160Z</time>
      </trkpt>
      <trkpt lat="50.611121" lon="5.397639">
        <ele>141.308690</ele>
        <time>2026-03-02T00:08:32.762Z</time>
      </trkpt>
      <trkpt lat="50.610465" lon="5.397070">
        <ele>131.877969</ele>
        <time>2026-03-02T00:10:07.625Z</time>
      </trkpt>
      <trkpt lat="50.610090" lon="5.396571">
        <ele>126.106218</ele>
        <time>2026-03-02T00:11:11.261Z</time>
      </trkpt>
      <trkpt lat="50.609846" lon="5.396230">
        <ele>122.448009</ele>
        <time>2026-03-02T00:11:52.395Z</time>
      </trkpt>
      <trkpt lat="50.609649" lon="5.395954">
        <ele>119.491214</ele>
        <time>2026-03-02T00:12:25.114Z</time>
      </trkpt>
      <trkpt lat="50.609524" lon="5.395974">
        <ele>118.081896</ele>
        <time>2026-03-02T00:12:40.622Z</time>
      </trkpt>
      <trkpt lat="50.609370" lon="5.396359">
        <ele>114.842389</ele>
        <time>2026-03-02T00:13:15.593Z</time>
      </trkpt>
      <trkpt lat="50.609152" lon="5.396854">
        <ele>110.553472</ele>
        <time>2026-03-02T00:14:00.725Z</time>
      </trkpt>
      <trkpt lat="50.608904" lon="5.397122">
        <ele>108.500928</ele>
        <time>2026-03-02T00:14:34.978Z</time>
      </trkpt>
      <trkpt lat="50.608647" lon="5.397739">
        <ele>106.571233</ele>
        <time>2026-03-02T00:15:26.003Z</time>
      </trkpt>
      <trkpt lat="50.608605" lon="5.397795">
        <ele>106.344555</ele>
        <time>2026-03-02T00:15:31.880Z</time>
      </trkpt>
      <trkpt lat="50.607433" lon="5.398557">
        <ele>101.673707</ele>
        <time>2026-03-02T00:17:46.882Z</time>
      </trkpt>
      <trkpt lat="50.607296" lon="5.398586">
        <ele>101.531872</ele>
        <time>2026-03-02T00:18:01.211Z</time>
      </trkpt>
      <trkpt lat="50.607181" lon="5.398532">
        <ele>101.408746</ele>
        <time>2026-03-02T00:18:13.430Z</time>
      </trkpt>
      <trkpt lat="50.606942" lon="5.399237">
        <ele>100.888269</ele>
        <time>2026-03-02T00:19:04.722Z</time>
      </trkpt>
      <trkpt lat="50.606875" lon="5.399422">
        <ele>100.749565</ele>
        <time>2026-03-02T00:19:18.359Z</time>
      </trkpt>
      <trkpt lat="50.606553" lon="5.400270">
        <ele>100.106064</ele>
        <time>2026-03-02T00:20:21.710Z</time>
      </trkpt>
      <trkpt lat="50.606280" lon="5.400896">
        <ele>99.467444</ele>
        <time>2026-03-02T00:21:10.351Z</time>
      </trkpt>
      <trkpt lat="50.606116" lon="5.401162">
        <ele>99.139009</ele>
        <time>2026-03-02T00:21:34.225Z</time>
      </trkpt>
      <trkpt lat="50.605427" lon="5.401950">
        <ele>97.950968</ele>
        <time>2026-03-02T00:23:03.258Z</time>
      </trkpt>
      <trkpt lat="50.604906" lon="5.402546">
        <ele>97.693817</ele>
        <time>2026-03-02T00:24:10.087Z</time>
      </trkpt>
      <trkpt lat="50.604742" lon="5.402734">
        <ele>97.814982</ele>
        <time>2026-03-02T00:24:30.528Z</time>
      </trkpt>
      <trkpt lat="50.604797" lon="5.402823">
        <ele>97.862082</ele>
        <time>2026-03-02T00:24:38.451Z</time>
      </trkpt>
      <trkpt lat="50.605093" lon="5.403138">
        <ele>98.075476</ele>
        <time>2026-03-02T00:25:15.002Z</time>
      </trkpt>
      <trkpt lat="50.605132" lon="5.403178">
        <ele>98.103277</ele>
        <time>2026-03-02T00:25:19.781Z</time>
      </trkpt>
      <trkpt lat="50.605406" lon="5.403496">
        <ele>98.306585</ele>
        <time>2026-03-02T00:25:55.594Z</time>
      </trkpt>
      <trkpt lat="50.605447" lon="5.403560">
        <ele>98.341064</ele>
        <time>2026-03-02T00:26:01.911Z</time>
      </trkpt>
      <trkpt lat="50.605610" lon="5.403672">
        <ele>98.447301</ele>
        <time>2026-03-02T00:26:21.219Z</time>
      </trkpt>
      <trkpt lat="50.605639" lon="5.403912">
        <ele>98.539934</ele>
        <time>2026-03-02T00:26:38.208Z</time>
      </trkpt>
      <trkpt lat="50.605578" lon="5.404099">
        <ele>98.628026</ele>
        <time>2026-03-02T00:26:52.858Z</time>
      </trkpt>
      <trkpt lat="50.605502" lon="5.404132">
        <ele>98.684183</ele>
        <time>2026-03-02T00:27:01.462Z</time>
      </trkpt>
      <trkpt lat="50.605356" lon="5.404120">
        <ele>98.788326</ele>
        <time>2026-03-02T00:27:17.752Z</time>
      </trkpt>
      <trkpt lat="50.605207" lon="5.404210">
        <ele>98.901997</ele>
        <time>2026-03-02T00:27:34.948Z</time>
      </trkpt>
      <trkpt lat="50.605064" lon="5.404554">
        <ele>99.087909</ele>
        <time>2026-03-02T00:28:02.130Z</time>
      </trkpt>
      <trkpt lat="50.604894" lon="5.404728">
        <ele>99.232315</ele>
        <time>2026-03-02T00:28:22.816Z</time>
      </trkpt>
      <trkpt lat="50.604766" lon="5.404957">
        <ele>99.370273</ele>
        <time>2026-03-02T00:28:42.326Z</time>
      </trkpt>
      <trkpt lat="50.604710" lon="5.405218">
        <ele>99.494832</ele>
        <time>2026-03-02T00:28:59.880Z</time>
      </trkpt>
      <trkpt lat="50.604734" lon="5.405374">
        <ele>99.567402</ele>
        <time>2026-03-02T00:29:10.160Z</time>
      </trkpt>
      <trkpt lat="50.604566" lon="5.405134">
        <ele>99.728942</ele>
        <time>2026-03-02T00:29:32.974Z</time>
      </trkpt>
      <trkpt lat="50.604492" lon="5.405096">
        <ele>99.784384</ele>
        <time>2026-03-02T00:29:40.848Z</time>
      </trkpt>
      <trkpt lat="50.604403" lon="5.405287">
        <ele>99.809596</ele>
        <time>2026-03-02T00:29:56.171Z</time>
      </trkpt>
      <trkpt lat="50.604389" lon="5.405431">
        <ele>99.717382</ele>
        <time>2026-03-02T00:30:05.752Z</time>
      </trkpt>
      <trkpt lat="50.604298" lon="5.405547">
        <ele>99.600640</ele>
        <time>2026-03-02T00:30:17.784Z</time>
      </trkpt>
      <trkpt lat="50.604033" lon="5.405602">
        <ele>99.334059</ele>
        <time>2026-03-02T00:30:45.315Z</time>
      </trkpt>
      <trkpt lat="50.603467" lon="5.405629">
        <ele>98.769300</ele>
        <time>2026-03-02T00:31:42.669Z</time>
      </trkpt>
      <trkpt lat="50.603099" lon="5.405556">
        <ele>98.399378</ele>
        <time>2026-03-02T00:32:19.962Z</time>
      </trkpt>
      <trkpt lat="50.603011" lon="5.405627">
        <ele>98.300773</ele>
        <time>2026-03-02T00:32:29.971Z</time>
      </trkpt>
      <trkpt lat="50.602749" lon="5.405675">
        <ele>97.985452</ele>
        <time>2026-03-02T00:32:57.455Z</time>
      </trkpt>
      <trkpt lat="50.602594" lon="5.405791">
        <ele>97.467641</ele>
        <time>2026-03-02T00:33:15.487Z</time>
      </trkpt>
      <trkpt lat="50.602423" lon="5.405843">
        <ele>96.942108</ele>
        <time>2026-03-02T00:33:33.923Z</time>
      </trkpt>
      <trkpt lat="50.602289" lon="5.405839">
        <ele>96.537676</ele>
        <time>2026-03-02T00:33:48.041Z</time>
      </trkpt>
      <trkpt lat="50.601762" lon="5.405440">
        <ele>94.773314</ele>
        <time>2026-03-02T00:34:49.993Z</time>
      </trkpt>
      <trkpt lat="50.601615" lon="5.405393">
        <ele>94.320685</ele>
        <time>2026-03-02T00:35:06.363Z</time>
      </trkpt>
      <trkpt lat="50.601507" lon="5.405431">
        <ele>93.986756</ele>
        <time>2026-03-02T00:35:18.424Z</time>
      </trkpt>
      <trkpt lat="50.601375" lon="5.405547">
        <ele>93.530660</ele>
        <time>2026-03-02T00:35:34.987Z</time>
      </trkpt>
      <trkpt lat="50.601274" lon="5.405767">
        <ele>93.010621</ele>
        <time>2026-03-02T00:35:53.717Z</time>
      </trkpt>
      <trkpt lat="50.601170" lon="5.405923">
        <ele>92.599523</ele>
        <time>2026-03-02T00:36:09.321Z</time>
      </trkpt>
      <trkpt lat="50.600731" lon="5.406036">
        <ele>91.766095</ele>
        <time>2026-03-02T00:36:56.727Z</time>
      </trkpt>
      <trkpt lat="50.600682" lon="5.406059">
        <ele>91.670299</ele>
        <time>2026-03-02T00:37:02.076Z</time>
      </trkpt>
      <trkpt lat="50.600589" lon="5.406145">
        <ele>91.468254</ele>
        <time>2026-03-02T00:37:13.222Z</time>
      </trkpt>
      <trkpt lat="50.600527" lon="5.406432">
        <ele>91.107716</ele>
        <time>2026-03-02T00:37:33.110Z</time>
      </trkpt>
      <trkpt lat="50.600459" lon="5.406568">
        <ele>90.901825</ele>
        <time>2026-03-02T00:37:44.472Z</time>
      </trkpt>
      <trkpt lat="50.600195" lon="5.406844">
        <ele>90.308190</ele>
        <time>2026-03-02T00:38:17.130Z</time>
      </trkpt>
      <trkpt lat="50.600270" lon="5.407824">
        <ele>89.265924</ele>
        <time>2026-03-02T00:39:20.944Z</time>
      </trkpt>
      <trkpt lat="50.600287" lon="5.408211">
        <ele>89.265924</ele>
        <time>2026-03-02T00:39:45.763Z</time>
      </trkpt>
      <trkpt lat="50.600282" lon="5.408417">
        <ele>89.265924</ele>
        <time>2026-03-02T00:39:58.901Z</time>
      </trkpt>
      <trkpt lat="50.600231" lon="5.408717">
        <ele>89.265924</ele>
        <time>2026-03-02T00:40:18.683Z</time>
      </trkpt>
      <trkpt lat="50.600082" lon="5.409142">
        <ele>89.265924</ele>
        <time>2026-03-02T00:40:49.632Z</time>
      </trkpt>
    </trkseg>
  </trk>
</gpx>